"school_id","school_uuid","school_name","postal_code","prefecture","district","address","building","latitude","longitude","phone_number","main_device_id","group_1","group_2","group_3"
"114","15c324a1-625a-481e-a547-bc503cf70a57","港中学校","231-0023","kanagawa","横浜市中区","山下町241",NA,"35.441417","139.643446",NA,"d0c311c3-d376-4a5f-b838-aee8708401ea","横浜市プロジェクト","中区","中区（中学校）"
"115","507632a0-1d4b-444a-a323-0689d10b1762","横浜吉田中学校","231-0047","kanagawa","横浜市中区","羽衣町3-84",NA,"35.442779","139.632679",NA,"02e82a14-c38a-4a37-9b80-e04adf315b28","横浜市プロジェクト","中区","中区（中学校）"
"116","5140b751-be82-4112-ba68-6f5e41f7da9d","本牧中学校","231-0827","kanagawa","横浜市中区","本牧和田32-1",NA,"35.422746","139.656249",NA,"08497071-bfe2-4bde-96c1-518e0839bba0","横浜市プロジェクト","中区","中区（中学校）"
"117","6efc3c27-1afe-495e-9dec-8c53675c6545","仲尾台中学校","231-0839","kanagawa","横浜市中区","仲尾台23",NA,"35.425324","139.64492",NA,"e94f683e-7b65-42db-b2c1-2171332eccf8","横浜市プロジェクト","中区","中区（中学校）"
"118","f389c93f-2a89-405b-9636-0791f71a97b5","大鳥中学校","231-0821","kanagawa","横浜市中区","本牧原22-1",NA,"35.423659","139.669169",NA,"d32fcdc5-92c7-440e-b048-d05f5e58e2e8","横浜市プロジェクト","中区","中区（中学校）"
"262","11e508d0-a011-42a1-a530-8237f8f88500","北方小学校","231-0863","kanagawa","横浜市中区","諏訪町29",NA,"35.436662","139.653866",NA,"06931daf-eb87-406f-bfc8-a96852507db2","横浜市プロジェクト","中区","中区（小学校）"
"263","2f1d2f1c-c3f4-4723-a62e-87127343da65","本牧南小学校","231-0822","kanagawa","横浜市中区","本牧元町44-1",NA,"35.416386","139.668956",NA,"c9060995-1dfd-4c0b-9e4e-fbb73151647e","横浜市プロジェクト","中区","中区（小学校）"
"264","475bdf04-9fbd-4107-8299-4704ddf32f68","山元小学校","231-0851","kanagawa","横浜市中区","山元町3-152",NA,"35.428371","139.637897",NA,"ff194845-8ead-4e3f-b0ad-55b646dea69a","横浜市プロジェクト","中区","中区（小学校）"
"265","52999221-532f-4af0-9e3a-3dba2d7a3be1","間門小学校","231-0825","kanagawa","横浜市中区","本牧間門29-1",NA,"35.417787","139.654884",NA,"47bd2e34-7546-4309-850e-44641ee635c7","横浜市プロジェクト","中区","中区（小学校）"
"266","573aaa9a-fba8-4f42-b5c4-73c408c7e8af","元街小学校","231-0862","kanagawa","横浜市中区","山手町36",NA,"35.436164","139.649242",NA,"4b7876b9-f4ca-4e4c-a802-9af9830d4016","横浜市プロジェクト","中区","中区（小学校）"
"267","7d5ed847-8a5e-4686-b5da-9e22aa9c051d","本牧小学校","231-0827","kanagawa","横浜市中区","本牧和田5-1",NA,"35.424825","139.662149",NA,"9ce6a68c-5b66-4713-b294-23774c3495d5","横浜市プロジェクト","中区","中区（小学校）"
"268","80e3b516-805e-429f-9404-a850bdb55a2d","本町小学校","231-0063","kanagawa","横浜市中区","花咲町3-86",NA,"35.450746","139.628713",NA,"ef5f7935-042b-4a6e-91cb-6bc7e815f71e","横浜市プロジェクト","中区","中区（小学校）"
"269","c6708ed5-37e8-465c-af95-00abecc26241","立野小学校","231-0845","kanagawa","横浜市中区","立野76",NA,"35.427081","139.645044",NA,"98161c8a-4814-43eb-a19b-1b71a26caa05","横浜市プロジェクト","中区","中区（小学校）"
"270","ff9971a1-b635-4fe3-a091-c117718c53b8","大鳥小学校","231-0806","kanagawa","横浜市中区","本牧町一丁目251",NA,"35.427575","139.656977",NA,"1ac8e2d0-6b65-4145-b000-da6e0642e8de","横浜市プロジェクト","中区","中区（小学校）"
"456","ee43b5ba-cdea-493a-aef6-7d79bcae62c0","みなと総合高等学校","231-0023","kanagawa","横浜市中区","山下町231",NA,"35.441534","139.641712",NA,"d49999d6-f772-4ef0-ad6e-269b5f15f328","横浜市プロジェクト","中区","中区（高等学校）"
"321","39453d3b-73f0-40e9-838b-41a51252b9f2","保土ケ谷中学校","240-0066","kanagawa","横浜市保土ケ谷区","釜台町3-1",NA,"35.466314","139.584465",NA,"0105a732-4bbf-4b09-9d4e-dc2382df4ac0","横浜市プロジェクト","保土ヶ谷区","保土ヶ谷区（中学校）"
"322","658e7a4f-097c-4132-ad50-9461fa89c51a","上菅田中学校","240-0051","kanagawa","横浜市保土ケ谷区","上菅田町780",NA,"35.490054","139.568362",NA,"205ae8ea-a673-4a41-8434-717b74aaf2ab","横浜市プロジェクト","保土ヶ谷区","保土ヶ谷区（中学校）"
"323","6afaf97c-eea9-4d18-90b1-602dd267e1ee","西谷中学校","240-0045","kanagawa","横浜市保土ケ谷区","川島町1208",NA,"35.474667","139.563846",NA,"bf2d6367-cd7d-4123-89b6-af3e9b850e91","横浜市プロジェクト","保土ヶ谷区","保土ヶ谷区（中学校）"
"324","79161d0f-bb22-4258-99a8-c6e847c3de37","宮田中学校","240-0002","kanagawa","横浜市保土ケ谷区","宮田町1-100",NA,"35.461319","139.605251",NA,"d87ec4b8-2b7d-418f-80b7-44d1d6e249a6","横浜市プロジェクト","保土ヶ谷区","保土ヶ谷区（中学校）"
"325","806854eb-4038-483d-a66e-df599a608425","新井中学校","240-0053","kanagawa","横浜市保土ケ谷区","新井町43-7",NA,"35.484276","139.55946",NA,"092368ea-57b5-4e5f-9538-12170ecb6118","横浜市プロジェクト","保土ヶ谷区","保土ヶ谷区（中学校）"
"326","b1924480-0504-4552-9a99-d2f39cf7da0a","岩井原中学校","240-0023","kanagawa","横浜市保土ケ谷区","岩井町308",NA,"35.443497","139.601204",NA,"0557b041-c076-4876-8885-aca10e051942","横浜市プロジェクト","保土ヶ谷区","保土ヶ谷区（中学校）"
"327","c773b1e2-52a6-4cfe-b180-327979290645","橘中学校","240-0044","kanagawa","横浜市保土ケ谷区","仏向町1167-2",NA,"35.455818","139.576583",NA,"b27000e6-5ba8-4bf3-be03-ffee9da6a2d6","横浜市プロジェクト","保土ヶ谷区","保土ヶ谷区（中学校）"
"328","ed2b719f-99cd-457c-bdd9-c655b2d4df0e","岩崎中学校","240-0011","kanagawa","横浜市保土ケ谷区","桜ケ丘二丁目6-1",NA,"35.450408","139.585978",NA,"ce0f358b-3663-41d5-8e88-d61852341a2d","横浜市プロジェクト","保土ヶ谷区","保土ヶ谷区（中学校）"
"64","126f623a-a391-412f-bf2a-b472c063c37d","坂本小学校","240-0043","kanagawa","横浜市保土ケ谷区","坂本町6",NA,"35.464851","139.579902",NA,"124efe9d-83eb-4886-a1a7-6a017cd45222","横浜市プロジェクト","保土ヶ谷区","保土ヶ谷区（小学校）"
"65","46f62696-c161-4207-b895-f2c1dcee6d37","権太坂小学校","240-0026","kanagawa","横浜市保土ケ谷区","権太坂二丁目4-1",NA,"35.442236","139.574881",NA,"3246d851-3aab-4731-be3a-a762233e474b","横浜市プロジェクト","保土ヶ谷区","保土ヶ谷区（小学校）"
"66","52499953-f3ab-4f90-b1c1-fb39dc659e17","帷子小学校","240-0001","kanagawa","横浜市保土ケ谷区","川辺町65-1",NA,"35.456744","139.597445",NA,"35a27a80-b51f-44eb-8d6f-1ed575875a89","横浜市プロジェクト","保土ヶ谷区","保土ヶ谷区（小学校）"
"67","5d1753cf-7cc2-4624-af43-6c5e1525b4cb","星川小学校","240-0006","kanagawa","横浜市保土ケ谷区","星川三丁目18-1",NA,"35.461271","139.58982",NA,"46cd4895-acba-4661-824b-b7c5f3650620","横浜市プロジェクト","保土ヶ谷区","保土ヶ谷区（小学校）"
"68","5e10db33-5d05-4baf-b3de-3a75cfadae10","藤塚小学校","240-0036","kanagawa","横浜市保土ケ谷区","新桜ケ丘一丁目22-1",NA,"35.451003","139.562792",NA,"c47bc5c2-8d0c-4861-9913-89a86b53e071","横浜市プロジェクト","保土ヶ谷区","保土ヶ谷区（小学校）"
"69","6574d33c-b3c4-4814-9136-1bcd2494f38e","初音が丘小学校","240-0031","kanagawa","横浜市保土ケ谷区","藤塚町1-1",NA,"35.448089","139.576351",NA,"5d48d415-feca-4417-b61a-8ead651d7841","横浜市プロジェクト","保土ヶ谷区","保土ヶ谷区（小学校）"
"70","6a005e2d-ab30-4ed7-a7b4-fb203bdce0dd","仏向小学校","240-0044","kanagawa","横浜市保土ケ谷区","仏向町845",NA,"35.460668","139.584848",NA,"b059cbc5-2221-4844-9418-4e240edeba46","横浜市プロジェクト","保土ヶ谷区","保土ヶ谷区（小学校）"
"71","6ae7b873-5557-428d-9e7e-3b0824a371ef","常盤台小学校","240-0066","kanagawa","横浜市保土ケ谷区","釜台町22-1",NA,"35.469093","139.585406",NA,"a46a5b7e-a9d2-4487-b6da-708f9a3cb214","横浜市プロジェクト","保土ヶ谷区","保土ヶ谷区（小学校）"
"72","7056de89-8fef-4a11-9016-0b82ea7e968b","富士見台小学校","240-0023","kanagawa","横浜市保土ケ谷区","岩井町307",NA,"35.443069","139.602104",NA,"e9bb75f2-d7f7-4984-9468-3dcb5ffac24e","横浜市プロジェクト","保土ヶ谷区","保土ヶ谷区（小学校）"
"73","79b95d1f-a1ba-4652-a09a-8bb093c5e2d1","川島小学校","240-0045","kanagawa","横浜市保土ケ谷区","川島町1162",NA,"35.473582","139.568249",NA,"fe6e301b-c81e-4d2f-99bf-febd763b375b","横浜市プロジェクト","保土ヶ谷区","保土ヶ谷区（小学校）"
"74","8954dcc0-f9dd-4ca1-9a35-9e7a8866af3e","瀬戸ケ谷小学校","240-0024","kanagawa","横浜市保土ケ谷区","瀬戸ケ谷町243",NA,"35.441313","139.586934",NA,"b06fa21e-5b77-4503-a1e8-827865c03826","横浜市プロジェクト","保土ヶ谷区","保土ヶ谷区（小学校）"
"75","922ecce7-12bb-4dde-8fb3-b5ac68970aba","新井小学校","240-0051","kanagawa","横浜市保土ケ谷区","上菅田町1574-1",NA,"35.495846","139.556922",NA,"7ebd7eea-ccaf-4a40-8e59-d74c6e02b614","横浜市プロジェクト","保土ヶ谷区","保土ヶ谷区（小学校）"
"76","956afef9-f742-40d3-8bf3-8d4d6deda66e","今井小学校","240-0035","kanagawa","横浜市保土ケ谷区","今井町981-1",NA,"35.4466","139.558301",NA,"f70cb28c-8dc6-4fdb-a9fd-7ae269ee3022","横浜市プロジェクト","保土ヶ谷区","保土ヶ谷区（小学校）"
"77","99190344-6b67-40bc-9922-c1e67a1652a9","上菅田笹の丘小学校","240-0051","kanagawa","横浜市保土ケ谷区","上菅田町1422",NA,"35.492039","139.564593",NA,"593a46ea-0743-4a0f-9cfa-286ab1eb27be","横浜市プロジェクト","保土ヶ谷区","保土ヶ谷区（小学校）"
"78","a96e0ea2-961c-4dd6-ab56-30c7762f545f","岩崎小学校","240-0015","kanagawa","横浜市保土ケ谷区","岩崎町22-1",NA,"35.446726","139.587025",NA,"9150a7c1-8fc4-45b7-bb14-e2b2467eda43","横浜市プロジェクト","保土ヶ谷区","保土ヶ谷区（小学校）"
"79","ac3e6daf-80de-4c22-8bc0-bcda11d905a4","上星川小学校","240-0042","kanagawa","横浜市保土ケ谷区","上星川二丁目51-1",NA,"35.475594","139.578026",NA,"5a3e6dd2-3c23-4c41-be95-bb6e7886ba5f","横浜市プロジェクト","保土ヶ谷区","保土ヶ谷区（小学校）"
"80","ca58e417-4389-4454-aa03-bbb23a093fb9","保土ケ谷小学校","240-0005","kanagawa","横浜市保土ケ谷区","神戸町129-4",NA,"35.454614","139.595096",NA,"3ede4cfc-bf78-4c0e-a678-67edf532b261","横浜市プロジェクト","保土ヶ谷区","保土ヶ谷区（小学校）"
"81","d1359571-9b5c-4bb6-bd35-9e91d749bc99","新井小学校・中学校桜坂分校","240-0053","kanagawa","横浜市保土ケ谷区","新井町580",NA,"35.488599","139.555987",NA,"8fff8833-3690-4e1c-b184-e4df6b85d558","横浜市プロジェクト","保土ヶ谷区","保土ヶ谷区（小学校）"
"82","db29da3d-3943-4236-b8e2-d68f40e4d2f8","桜台小学校","240-0011","kanagawa","横浜市保土ケ谷区","桜ヶ丘一丁目13-1",NA,"35.450289","139.591393",NA,"c3bda9a6-4165-43c1-88ea-02bf213863ac","横浜市プロジェクト","保土ヶ谷区","保土ヶ谷区（小学校）"
"83","ff9d9ad9-9321-463f-97a1-6e6743492539","峯小学校","240-0064","kanagawa","横浜市保土ケ谷区","峰岡町1-10",NA,"35.461494","139.599436",NA,"7b7f48af-4cfd-4439-9e2f-7e631985b11e","横浜市プロジェクト","保土ヶ谷区","保土ヶ谷区（小学校）"
"508","e776f115-8c8e-4833-81a2-eea5f467c034","上菅田特別支援学校","240-0051","kanagawa","横浜市保土ケ谷区","上菅田町462",NA,"35.485221","139.574304",NA,"a0bde4e3-6471-4798-bd97-6a52b6cba958","横浜市プロジェクト","保土ヶ谷区","保土ヶ谷区（特別支援学校）"
"509","fdce93b9-575a-4eca-9461-0beb9704dd77","ろう特別支援学校","240-0067","kanagawa","横浜市保土ケ谷区","常盤台81-1",NA,"35.472753","139.595732",NA,"bcf1acda-8b5a-4b3e-8416-f1d51d9ce5b8","横浜市プロジェクト","保土ヶ谷区","保土ヶ谷区（特別支援学校）"
"36","d820e5e3-f9d5-4297-b14b-ea048828afa8","桜丘高等学校","240-0011","kanagawa","横浜市保土ケ谷区","桜ヶ丘二丁目15-1",NA,"35.451646","139.585441",NA,"c3649318-0f82-4017-b59d-745a12de9317","横浜市プロジェクト","保土ヶ谷区","保土ヶ谷区（高等学校）"
"28","2ffdec67-a50d-4041-9d5f-8e05fb2f91b5","南が丘中学校","232-0064","kanagawa","横浜市南区","別所三丁目6-1",NA,"35.413864","139.590835",NA,"aaae53f6-9dad-49f8-b6d1-9f2020183a98","横浜市プロジェクト","南区","南区（中学校）"
"29","6088debf-2101-41f4-9e10-e99799930f7b","六ツ川中学校","232-0066","kanagawa","横浜市南区","六ツ川三丁目81-11",NA,"35.4289694","139.5762623",NA,"57959a82-ac51-4ac7-882e-9980b76505e0","横浜市プロジェクト","南区","南区（中学校）"
"30","745dd59e-fb0f-4507-8357-092fb335dba5","永田中学校","232-0075","kanagawa","横浜市南区","永田みなみ台7-1",NA,"35.43346","139.586983",NA,"c2fe1458-7cf3-4858-819c-ec6d83adc985","横浜市プロジェクト","南区","南区（中学校）"
"31","79f21c8e-2ffa-4079-82a1-d5c5ca7cc451","藤の木中学校","232-0061","kanagawa","横浜市南区","大岡四丁目44-1",NA,"35.410271","139.606206",NA,"3f13e18b-6432-4072-ab4f-7ea74e735efe","横浜市プロジェクト","南区","南区（中学校）"
"32","c4d95ee6-ff3f-474a-877c-bdf3d767e97a","南中学校","232-0066","kanagawa","横浜市南区","六ツ川一丁目14",NA,"35.426402","139.597475",NA,"8075af68-144b-4258-8866-03f976ab03ce","横浜市プロジェクト","南区","南区（中学校）"
"33","ce0545bc-4da2-43d4-96b7-f53bda649e61","蒔田中学校","232-0018","kanagawa","横浜市南区","花之木町2-45",NA,"35.432547","139.609791",NA,"fe88de65-59be-404d-946f-38de92503bd3","横浜市プロジェクト","南区","南区（中学校）"
"34","d15fee8e-fc77-4eb1-8b96-510ff9875bbb","平楽中学校","232-0035","kanagawa","横浜市南区","平楽1",NA,"35.431336","139.633334",NA,"0b1979ff-7072-432e-9a6b-633605f50c40","横浜市プロジェクト","南区","南区（中学校）"
"35","dfe93e7d-9651-4668-88b9-8bb14275b9a1","共進中学校","232-0045","kanagawa","横浜市南区","東蒔田町1-5",NA,"35.432854","139.61708",NA,"96024eb9-ef92-4998-a2ea-e37a836b4146","横浜市プロジェクト","南区","南区（中学校）"
"332","00b30220-e4ef-482a-8fd1-229691f0b7cc","中村小学校","232-0033","kanagawa","横浜市南区","中村町４丁目269-1",NA,"35.433118","139.626322",NA,"db1caff4-fc24-4099-91fc-ed2fea878b1a","横浜市プロジェクト","南区","南区（小学校）"
"333","0dcc49cd-905c-4bc0-b7e7-99596aad0263","太田小学校","232-0002","kanagawa","横浜市南区","三春台42",NA,"35.440909","139.617666",NA,"498005bb-8120-4356-ae3b-ead7d98b78e9","横浜市プロジェクト","南区","南区（小学校）"
"334","104c7971-78e8-4293-a024-07056d58132f","南吉田小学校","232-0022","kanagawa","横浜市南区","高根町2-14",NA,"35.436619","139.626612",NA,"6a287a8f-5c6b-491b-9006-75fec7f05c5c","横浜市プロジェクト","南区","南区（小学校）"
"335","22bcf140-438e-46a1-b91c-26a648092f3e","石川小学校","232-0033","kanagawa","横浜市南区","中村町1-66",NA,"35.434303","139.635744",NA,"f0222ac1-32bf-434d-b74c-47c17b00da86","横浜市プロジェクト","南区","南区（小学校）"
"336","4dbade33-1e7a-4ddd-aeae-09b14e6b046a","南太田小学校","232-0006","kanagawa","横浜市南区","南太田一丁目17-1",NA,"35.434841","139.611489",NA,"252cd1b6-0f0a-4aae-97e5-1b093bc60873","横浜市プロジェクト","南区","南区（小学校）"
"337","613f4b2c-ce85-4299-a3fe-01542bd9a4c1","永田小学校","232-0071","kanagawa","横浜市南区","永田北二丁目6-12",NA,"35.435319","139.592139",NA,"6b2da7a0-9e13-4124-acae-0b7a53998864","横浜市プロジェクト","南区","南区（小学校）"
"338","66fe6bdb-a97a-463e-8ffd-cb8412b80c56","南小学校","232-0063","kanagawa","横浜市南区","中里一丁目6-16",NA,"35.418867","139.599506",NA,"db70ae28-8261-4a0e-a86f-ec29b1c7d251","横浜市プロジェクト","南区","南区（小学校）"
"339","72e1e432-dbd5-42aa-a3fa-b3d3e30fb635","大岡小学校","232-0054","kanagawa","横浜市南区","大橋町3-49",NA,"35.425898","139.600063",NA,"a219c654-5668-48c4-a859-509b55940936","横浜市プロジェクト","南区","南区（小学校）"
"340","7857ab1d-18ee-4974-971c-10d4bd734f29","井土ケ谷小学校","232-0051","kanagawa","横浜市南区","井土ケ谷上町2-1",NA,"35.432906","139.599391",NA,"8e7bbeb5-cffa-434d-ae52-27ec7b47528f","横浜市プロジェクト","南区","南区（小学校）"
"341","79ec2871-323d-44ed-9b09-15b6a08d3303","日枝小学校","232-0013","kanagawa","横浜市南区","山王町5-31",NA,"35.435619","139.616725",NA,"9689417b-ec9b-41fa-a061-4e3c6474eb22","横浜市プロジェクト","南区","南区（小学校）"
"342","85067952-27e4-4665-a65c-d1bb8dd93bc3","六つ川西小学校","232-0066","kanagawa","横浜市南区","六ツ川二丁目156-1",NA,"35.425306","139.577827",NA,"bc9acd69-8624-4e49-acd7-0774d4e7929b","横浜市プロジェクト","南区","南区（小学校）"
"343","89610a98-dac0-4234-85e2-6a3b09e077f8","蒔田小学校","232-0043","kanagawa","横浜市南区","蒔田町1020",NA,"35.425453","139.613525",NA,"74fb1122-789b-4070-86c5-47fbd5365cfa","横浜市プロジェクト","南区","南区（小学校）"
"344","9e64986a-e667-481b-bd68-7efdcff56146","六つ川小学校","232-0066","kanagawa","横浜市南区","六ツ川三丁目4-12",NA,"35.429323","139.583908",NA,"9d72afd9-2e12-4f7e-b9b7-9af15f870eda","横浜市プロジェクト","南区","南区（小学校）"
"345","aac0ef07-889b-4d9a-89ee-d3882ddc24a8","藤の木小学校","232-0061","kanagawa","横浜市南区","大岡四丁目10-1",NA,"35.412299","139.604703",NA,"37fb1419-d153-43e3-8d1a-e4fde2344e3d","横浜市プロジェクト","南区","南区（小学校）"
"346","cd5ffc92-4f2e-4a06-b5a8-4d24deecf28a","六つ川台小学校","232-0066","kanagawa","横浜市南区","六ツ川三丁目65-9",NA,"35.428549","139.580929",NA,"6da79e5c-72ab-4752-8642-e71bdabbdd4f","横浜市プロジェクト","南区","南区（小学校）"
"347","d5155915-05ae-41a7-b48f-70816621a3e6","永田台小学校","232-0075","kanagawa","横浜市南区","永田みなみ台6-1",NA,"35.432587","139.589288",NA,"0bad1f55-fa5d-4ca2-bc76-a03992a0b600","横浜市プロジェクト","南区","南区（小学校）"
"348","e14f5fc3-1f97-49ec-904d-2464a14e745c","別所小学校","232-0061","kanagawa","横浜市南区","別所六丁目3-1",NA,"35.417092","139.581777",NA,"0b094d90-7212-4bb6-a10a-69b88a9a97b3","横浜市プロジェクト","南区","南区（小学校）"
"446","a70a746b-a71c-4da8-8595-dc43c1a7c005","浦舟特別支援学校","232-0024","kanagawa","横浜市南区","浦舟町三丁目46",NA,"35.434056","139.625884",NA,"ca2888b9-3e22-4527-824f-10d7bbcecf85","横浜市プロジェクト","南区","南区（特別支援学校）"
"447","cfe510d8-2bc3-4e02-9cee-e80b1640d17b","中村特別支援学校","232-0033","kanagawa","横浜市南区","中村町四丁目269-1",NA,"35.433118","139.626322",NA,"23e91f2c-e6d6-4998-9d9d-499d0f12b88d","横浜市プロジェクト","南区","南区（特別支援学校）"
"1","7606b11e-fbe3-49a1-96ae-502a55ad7108","横浜商業高等学校","232-0006","kanagawa","横浜市南区","南太田二丁目30-1",NA,"35.434699","139.610229",NA,"2cc33e51-205b-4df0-bb99-f5c920f7d3ad","横浜市プロジェクト","南区","南区（高等学校）"
"2","7b88ad3f-04e3-4c45-85e5-69937f3ef628","横浜総合高等学校","232-0061","kanagawa","横浜市南区","大岡二丁目29-1",NA,"35.420686","139.603339",NA,"fc545445-e8f8-4a09-9b48-df9eaf28ba74","横浜市プロジェクト","南区","南区（高等学校）"
"412","0ec20374-55cb-491b-a9f2-61afaceeb482","境木中学校","244-0802","kanagawa","横浜市戸塚区","平戸三丁目48-2",NA,"35.436731","139.56983",NA,"774c0b91-b27a-4cbc-a744-af060e978664","横浜市プロジェクト","戸塚区","戸塚区（中学校）"
"413","116fb622-a2e4-45f0-8cae-607f53f82de7","舞岡中学校","244-0813","kanagawa","横浜市戸塚区","舞岡町226",NA,"35.408852","139.544822",NA,"92d6f70f-db5b-4401-b41c-33b71bb3532e","横浜市プロジェクト","戸塚区","戸塚区（中学校）"
"414","2a247551-d310-4ab9-9342-3591a02b6a9e","汲沢中学校","245-0062","kanagawa","横浜市戸塚区","汲沢町550-2",NA,"35.398909","139.507401",NA,"59f38a3e-a62e-470e-824f-5c02f6468777","横浜市プロジェクト","戸塚区","戸塚区（中学校）"
"415","4eabd8b3-e0b5-4a6e-a94e-d7d6bcdf91c3","戸塚中学校","244-0003","kanagawa","横浜市戸塚区","戸塚町4542",NA,"35.401535","139.523983",NA,"2ea87774-4587-49e7-bf6c-d39fa589551e","横浜市プロジェクト","戸塚区","戸塚区（中学校）"
"416","6657b8c0-7b3e-46b4-82b2-be4a5699f1a4","豊田中学校","244-0815","kanagawa","横浜市戸塚区","下倉田町950",NA,"35.382257","139.541744",NA,"11baf84f-a9f0-4b27-913e-858b4dd51ce2","横浜市プロジェクト","戸塚区","戸塚区（中学校）"
"417","90891f8b-911e-4682-9100-46e3e77b6eaf","秋葉中学校","245-0052","kanagawa","横浜市戸塚区","秋葉町271-3",NA,"35.420958","139.545198",NA,"6e942953-3236-440d-af44-bc07f471908c","横浜市プロジェクト","戸塚区","戸塚区（中学校）"
"418","923da2bb-d35c-4414-bafd-56def290ba36","大正中学校","245-0063","kanagawa","横浜市戸塚区","原宿四丁目12-1",NA,"35.378508","139.503216",NA,"4682fb12-0c7c-4994-86d9-71876a848a53","横浜市プロジェクト","戸塚区","戸塚区（中学校）"
"419","af384b6d-72c8-4231-aec9-1356d9761ab8","平戸中学校","244-0803","kanagawa","横浜市戸塚区","平戸町993-4",NA,"35.424745","139.565478",NA,"083f122f-62cd-494c-aa45-363d7d3bcd1e","横浜市プロジェクト","戸塚区","戸塚区（中学校）"
"420","db4835f3-9c79-4b9f-8d02-452499a55d30","南戸塚中学校","244-0003","kanagawa","横浜市戸塚区","戸塚町1842-1",NA,"35.381095","139.518222",NA,"11d620e8-fb44-4ab1-8421-221e0a55f621","横浜市プロジェクト","戸塚区","戸塚区（中学校）"
"421","edf58e75-91da-406a-8e99-021717225a54","名瀬中学校","245-0051","kanagawa","横浜市戸塚区","名瀬町791-6",NA,"35.434208","139.543662",NA,"0f90c6db-eea8-45ff-8318-66e325fb7ee5","横浜市プロジェクト","戸塚区","戸塚区（中学校）"
"422","ff16a76c-ef3b-409f-a26b-1933cd4640d4","深谷中学校","245-0067","kanagawa","横浜市戸塚区","深谷町1071",NA,"35.383516","139.498997",NA,"69dd7626-196c-46a5-9cec-683cb2b704c9","横浜市プロジェクト","戸塚区","戸塚区（中学校）"
"365","01375c98-0c22-47f0-8cb0-b2dc6e533928","下郷小学校","244-0003","kanagawa","横浜市戸塚区","戸塚町2447-2",NA,"35.386331","139.523943",NA,"1ff0e088-8c45-454a-81ae-7809149a046a","横浜市プロジェクト","戸塚区","戸塚区（小学校）"
"366","05b41070-de5f-4c7f-afed-bf007450639a","品濃小学校","244-0801","kanagawa","横浜市戸塚区","品濃町504-1",NA,"35.426217","139.55736",NA,"f71826d8-1ba4-40ec-a481-36ab88bafae3","横浜市プロジェクト","戸塚区","戸塚区（小学校）"
"367","12d12459-0a7b-47b9-920e-1b5143089a47","平戸小学校","244-0803","kanagawa","横浜市戸塚区","平戸町542",NA,"35.426544","139.56416",NA,"4f666146-1aa1-49f1-ab1f-e9f76427f5ea","横浜市プロジェクト","戸塚区","戸塚区（小学校）"
"368","1cf69ece-dd50-42f5-96f6-4e563b242c59","東戸塚小学校","244-0817","kanagawa","横浜市戸塚区","吉田町88",NA,"35.404799","139.540728",NA,"a7a984bd-b09c-45de-9b57-60da8c39542c","横浜市プロジェクト","戸塚区","戸塚区（小学校）"
"369","297cd3cd-a002-4213-8cf6-3ace9d4a8214","東俣野小学校","245-0065","kanagawa","横浜市戸塚区","東俣野町1103-1",NA,"35.368137","139.496706",NA,"9b39f7c6-dd29-4238-8ed1-4e587fd25ee7","横浜市プロジェクト","戸塚区","戸塚区（小学校）"
"370","3bf1d7d7-bde8-4eda-943d-dcb4bed3bad4","名瀬小学校","245-0051","kanagawa","横浜市戸塚区","名瀬町776",NA,"35.431075","139.541173",NA,"feeff729-5883-469b-a3df-ba5e32115c7e","横浜市プロジェクト","戸塚区","戸塚区（小学校）"
"371","4a781fee-c64b-4da7-9cd3-619c8596da13","平戸台小学校","244-0803","kanagawa","横浜市戸塚区","平戸町1165",NA,"35.423101","139.567906",NA,"1744d020-03c5-4b2f-b7fb-965ccb7b7c65","横浜市プロジェクト","戸塚区","戸塚区（小学校）"
"372","4f10f516-3250-4770-9a1b-5f3476c43b02","汲沢小学校","245-0061","kanagawa","横浜市戸塚区","汲沢三丁目6-1",NA,"35.396938","139.514207",NA,"d92dd7ed-4be0-49f2-af6c-d6af519a74c3","横浜市プロジェクト","戸塚区","戸塚区（小学校）"
"373","59b05ca8-15b0-4154-aa8a-581ad067d228","鳥が丘小学校","244-0001","kanagawa","横浜市戸塚区","鳥が丘53",NA,"35.412237","139.523545",NA,"36faf1b7-8ac7-4534-a474-858a4c1e5268","横浜市プロジェクト","戸塚区","戸塚区（小学校）"
"374","5d519200-00ce-4d66-ac4e-852fc100889a","横浜深谷台小学校","245-0067","kanagawa","横浜市戸塚区","深谷町1312-1",NA,"35.388106","139.496547",NA,"6099e930-90fe-43b7-804c-2d4487c067d3","横浜市プロジェクト","戸塚区","戸塚区（小学校）"
"375","67f186e8-a8f0-4adc-aa0d-8e32b9990c54","川上北小学校","244-0805","kanagawa","横浜市戸塚区","川上町63-1",NA,"35.429084","139.554184",NA,"cf7b72f2-e3d3-4d5e-a9c6-9a809ce6236c","横浜市プロジェクト","戸塚区","戸塚区（小学校）"
"376","7d3a8d18-e4ad-4934-9a9f-9f1046a14b72","小雀小学校","244-0004","kanagawa","横浜市戸塚区","小雀町1845",NA,"35.377151","139.511854",NA,"af9660e1-e49d-45d3-8811-9c85226c22b3","横浜市プロジェクト","戸塚区","戸塚区（小学校）"
"377","9717166f-051c-4ce2-b090-b341bc10a104","境木小学校","244-0802","kanagawa","横浜市戸塚区","平戸三丁目48-1",NA,"35.436893","139.568508",NA,"00db095b-a6bd-454d-97c7-6cd536eda795","横浜市プロジェクト","戸塚区","戸塚区（小学校）"
"378","a2358b57-deea-4f2e-88e6-b01499c36873","大正小学校","245-0063","kanagawa","横浜市戸塚区","原宿四丁目17-1",NA,"35.380029","139.502938",NA,"8a31ebce-1527-4406-acd8-38ec1565e7fe","横浜市プロジェクト","戸塚区","戸塚区（小学校）"
"379","a708b335-16cf-47fa-83fc-de8daa711664","矢部小学校","244-0002","kanagawa","横浜市戸塚区","矢部町1698",NA,"35.407207","139.523267",NA,"928104cc-c480-4d5c-82cf-a900821c94c4","横浜市プロジェクト","戸塚区","戸塚区（小学校）"
"380","aa6c511a-b13d-4785-98f7-b79ad77f1de3","柏尾小学校","244-0812","kanagawa","横浜市戸塚区","柏尾町1317",NA,"35.415034","139.550854",NA,"e1184b77-5228-40d5-bbe0-dbd21c4c4fc3","横浜市プロジェクト","戸塚区","戸塚区（小学校）"
"381","aaf653a7-f46e-4f57-89c8-3eaddb471ef8","東汲沢小学校","245-0061","kanagawa","横浜市戸塚区","汲沢一丁目16-1",NA,"35.398937","139.521333",NA,"7dccd21c-bb1d-4edd-b8c1-ec5a6c8814d9","横浜市プロジェクト","戸塚区","戸塚区（小学校）"
"382","aff6c9b3-4a3d-4e26-8393-ab56e59b43cb","上矢部小学校","245-0053","kanagawa","横浜市戸塚区","上矢部町1463-4",NA,"35.42351","139.528427",NA,"c8bbc15c-0bc6-44e0-a3ff-ba453f8adff5","横浜市プロジェクト","戸塚区","戸塚区（小学校）"
"383","b2bf1b28-dcc7-4d9d-a0e3-4ffdd6753d25","南戸塚小学校","244-0003","kanagawa","横浜市戸塚区","戸塚町2790-3",NA,"35.388241","139.525803",NA,"51060c2b-b00f-480b-8d50-a133ed88fa4a","横浜市プロジェクト","戸塚区","戸塚区（小学校）"
"384","bc4b16cf-6b9b-4a4c-8ade-129740586e68","東品濃小学校","244-0801","kanagawa","横浜市戸塚区","品濃町559",NA,"35.434199","139.560354",NA,"6e09535d-f2c0-4bd5-9f0a-fdd47717de3a","横浜市プロジェクト","戸塚区","戸塚区（小学校）"
"385","cd15fd17-3999-4e19-9963-98fcbca92869","戸塚小学校","244-0003","kanagawa","横浜市戸塚区","戸塚町132",NA,"35.397005","139.531898",NA,"13242e4d-1ce2-48f3-bf2b-42e0c1752f26","横浜市プロジェクト","戸塚区","戸塚区（小学校）"
"386","cd722205-ed15-40b3-96a8-e947c874557a","倉田小学校","244-0816","kanagawa","横浜市戸塚区","上倉田町1426-6",NA,"35.389529","139.541178",NA,"63b92868-d00d-4e8d-8896-baf00f65fd3a","横浜市プロジェクト","戸塚区","戸塚区（小学校）"
"387","d09b37d1-f21a-4895-93b1-53ec6ffc7e63","南舞岡小学校","244-0814","kanagawa","横浜市戸塚区","南舞岡四丁目15-1",NA,"35.388909","139.554694",NA,"c42da513-8813-426e-8828-d82ad0745a53","横浜市プロジェクト","戸塚区","戸塚区（小学校）"
"388","d18c72cf-860c-4c43-9d58-4139e37b2a92","川上小学校","245-0052","kanagawa","横浜市戸塚区","秋葉町203-2",NA,"35.426664","139.545542",NA,"6a063bb7-87f6-4677-8cd2-c998a86a88fb","横浜市プロジェクト","戸塚区","戸塚区（小学校）"
"389","e4c86aaa-7a35-4426-a506-d98c7c103b7f","秋葉小学校","245-0052","kanagawa","横浜市戸塚区","秋葉町392-1",NA,"35.420743","139.544747",NA,"cb4931de-079a-4854-aee8-48ddcd0369d3","横浜市プロジェクト","戸塚区","戸塚区（小学校）"
"390","ebc860dd-8d3d-4ff3-9508-b549c406e9de","舞岡小学校","244-0813","kanagawa","横浜市戸塚区","舞岡町534",NA,"35.406798","139.550665",NA,"d53678d8-1dc2-4f31-a708-4b58e07fb7b7","横浜市プロジェクト","戸塚区","戸塚区（小学校）"
"391","f0e81ca2-5777-489e-830f-eb0394e92fea","深谷小学校","245-0067","kanagawa","横浜市戸塚区","深谷町1688-2",NA,"35.391949","139.502691",NA,"4a343240-4529-4704-ad62-c1152d0c31bb","横浜市プロジェクト","戸塚区","戸塚区（小学校）"
"239","1fa8f7e0-53f2-4fa7-987a-b90b6e39bd26","東俣野特別支援学校","245-0065","kanagawa","横浜市戸塚区","東俣野町1103-1",NA,"35.368137","139.496706",NA,"50c65e66-367d-441b-b4a9-c180dea273a6","横浜市プロジェクト","戸塚区","戸塚区（特別支援学校）"
"169","5819eea6-920e-4fa9-8d01-3d1d2dc046ea","戸塚高等学校","245-8588","kanagawa","横浜市戸塚区","汲沢二丁目27-1",NA,"35.399707","139.516148",NA,"a3a47d68-1cd2-4621-815b-5e74efcfbbd7","横浜市プロジェクト","戸塚区","戸塚区（高等学校）"
"45","0f4eb1ff-b05b-47a1-aceb-f27e52d4dfb6","万騎が原中学校","241-0836","kanagawa","横浜市旭区","万騎が原31",NA,"35.457855","139.535835",NA,"32003829-f7b9-4d60-952c-af8da67bd027","横浜市プロジェクト","旭区","旭区（中学校）"
"46","160f33fe-82f2-488a-8e48-a819a94a06da","上白根北中学校","241-0002","kanagawa","横浜市旭区","上白根二丁目47-1",NA,"35.49569","139.537447",NA,"08cc1ba5-eae9-4ded-b635-82a1bcf4d708","横浜市プロジェクト","旭区","旭区（中学校）"
"47","34a4dfd7-fc14-4e94-b9a5-f7d2577a46f1","南希望が丘中学校","241-0824","kanagawa","横浜市旭区","南希望が丘108-8",NA,"35.456503","139.510132",NA,"0af63949-d59c-4bc6-90e2-f8e861637965","横浜市プロジェクト","旭区","旭区（中学校）"
"48","3d1a1186-6fdd-4ccb-bccb-7749f4d35d36","若葉台中学校","241-0801","kanagawa","横浜市旭区","若葉台一丁目13-1",NA,"35.507811","139.50371",NA,"2b520383-674b-40ef-99d2-358f92eb65cb","横浜市プロジェクト","旭区","旭区（中学校）"
"49","477a0076-7635-4264-bfe5-6b28cf46a815","旭中学校","241-0817","kanagawa","横浜市旭区","今宿二丁目40-1",NA,"35.474351","139.51751",NA,"63588a55-956a-42f1-9f66-a89d3754c9e0","横浜市プロジェクト","旭区","旭区（中学校）"
"50","54c3dbb2-752d-43ff-b399-34dcf059cb4c","今宿中学校","241-0032","kanagawa","横浜市旭区","今宿東町825",NA,"35.485165","139.537297",NA,"b4d8890f-42b4-4f1b-b789-85e0ba0c4bd6","横浜市プロジェクト","旭区","旭区（中学校）"
"51","63901c03-da80-468a-b3ba-cd95d9e47b30","本宿中学校","241-0011","kanagawa","横浜市旭区","川島町1979",NA,"35.464775","139.54782",NA,"07180fdb-5866-4785-85c4-4f7fd2c56a54","横浜市プロジェクト","旭区","旭区（中学校）"
"52","687fcc62-ae4c-4c3f-88dc-07a7a797991b","都岡中学校","241-0804","kanagawa","横浜市旭区","川井宿町32-2",NA,"35.495023","139.521587",NA,"45144480-38dc-4e87-9ed0-fc9c6276d65e","横浜市プロジェクト","旭区","旭区（中学校）"
"53","a2cbd2b2-ec12-48f4-b9cf-0c622807856a","希望が丘中学校","241-0826","kanagawa","横浜市旭区","東希望が丘118",NA,"35.464716","139.513166",NA,"94117c1a-3a2e-4e80-8969-9200ff53f257","横浜市プロジェクト","旭区","旭区（中学校）"
"54","bb33e45e-5581-4746-b112-395fb2708312","左近山中学校","241-0831","kanagawa","横浜市旭区","左近山1335-2",NA,"35.459588","139.551059",NA,"8ba7b941-db7d-43ad-a047-7ef0cd0799bd","横浜市プロジェクト","旭区","旭区（中学校）"
"56","fae94a96-b598-4ff6-9895-f2441baedc9f","鶴ケ峯中学校","241-0021","kanagawa","横浜市旭区","鶴ケ峰本町三丁目28-1",NA,"35.481558","139.542569",NA,"c1a9a226-c8f4-4bf3-bc09-a3ccd82f87b8","横浜市プロジェクト","旭区","旭区（中学校）"
"467","0068b2a9-b195-49e2-96cc-7baeb739acb6","四季の森小学校","241-0001","kanagawa","横浜市旭区","上白根町901",NA,"35.496543","139.531778",NA,"b584dba2-bb49-47b6-8e10-e04607e08428","横浜市プロジェクト","旭区","旭区（小学校）"
"468","1ecc7f40-5cc8-44a2-b181-73d6f8f953eb","南本宿小学校","241-0833","kanagawa","横浜市旭区","南本宿町79",NA,"35.458107","139.538998",NA,"e7384818-4021-4e9c-8704-2c32cda4724e","横浜市プロジェクト","旭区","旭区（小学校）"
"469","2014603c-38f1-42c3-9cd9-650647b05d9b","都岡小学校","241-0805","kanagawa","横浜市旭区","都岡町4-8",NA,"35.485505","139.521046",NA,"285b9ffd-c3f9-480c-a5bd-479b2394f8a8","横浜市プロジェクト","旭区","旭区（小学校）"
"470","2d32f54f-500e-4947-ac80-ae889a4e4d74","さちが丘小学校","241-0822","kanagawa","横浜市旭区","さちが丘110-1",NA,"35.45725","139.523133",NA,"ccd0a86d-28b5-466a-af4c-2233742587bd","横浜市プロジェクト","旭区","旭区（小学校）"
"471","2dc23f21-053b-4a18-aa64-cc72ff01b1c9","笹野台小学校","241-0816","kanagawa","横浜市旭区","笹野台四丁目48-1",NA,"35.473544","139.510583",NA,"89fae93b-4c3f-4086-8aba-c46a931391b1","横浜市プロジェクト","旭区","旭区（小学校）"
"472","359773e6-70a5-46b5-972d-d3d82e5f9749","上川井小学校","241-0802","kanagawa","横浜市旭区","上川井町2913",NA,"35.497914","139.502938",NA,"b766adab-b532-47d6-bfe0-fffc668070b0","横浜市プロジェクト","旭区","旭区（小学校）"
"473","38701fb9-d4c4-41d8-84ff-4e2d4364e228","川井小学校","241-0804","kanagawa","横浜市旭区","川井宿町32-2",NA,"35.495023","139.521587",NA,"e06fbc56-8e46-40a3-9965-f91fa89d475e","横浜市プロジェクト","旭区","旭区（小学校）"
"474","40606746-935d-405b-8302-f26fbdf8fdab","東希望が丘小学校","241-0826","kanagawa","横浜市旭区","東希望が丘155",NA,"35.464481","139.511564",NA,"c987759d-b80f-4f8a-b08a-2e36aca98fb2","横浜市プロジェクト","旭区","旭区（小学校）"
"475","45cf30bf-6538-42da-b9bf-0fe9ed985e75","中沢小学校","241-0814","kanagawa","横浜市旭区","中沢三丁目25-1",NA,"35.47508","139.522163",NA,"4c3af78d-22cb-44f8-af79-98ce3e2f06ed","横浜市プロジェクト","旭区","旭区（小学校）"
"476","495f45ef-d207-4d21-ba25-4554987794b1","二俣川小学校","241-0821","kanagawa","横浜市旭区","二俣川1-33",NA,"35.463965","139.52963",NA,"697af09b-b515-4564-8258-2e99553c2441","横浜市プロジェクト","旭区","旭区（小学校）"
"477","4a61f745-f829-49c6-9aec-ef0cb174a300","上白根小学校","241-0002","kanagawa","横浜市旭区","上白根二丁目45-1",NA,"35.495556","139.539048",NA,"6110899f-2b3f-445a-b9d1-752552e277c1","横浜市プロジェクト","旭区","旭区（小学校）"
"478","5ebb3f54-570a-44e9-8803-60ad78a8078b","鶴ケ峯小学校","241-0022","kanagawa","横浜市旭区","鶴ケ峰一丁目42",NA,"35.471998","139.552067",NA,"c41896d6-901d-4735-be25-a06d513d1604","横浜市プロジェクト","旭区","旭区（小学校）"
"479","61c87033-92d9-474f-884a-873fa5338f26","今宿南小学校","241-0034","kanagawa","横浜市旭区","今宿南町1879-2",NA,"35.479014","139.528517",NA,"c9863ddf-77e4-419a-be0a-bfdb046c236b","横浜市プロジェクト","旭区","旭区（小学校）"
"480","65b1b323-3836-444b-8b35-17837b14170f","若葉台小学校","241-0801","kanagawa","横浜市旭区","旭区若葉台二丁目14-1",NA,"35.508599","139.50022",NA,"8591bc46-15ae-4838-bb34-413b4096e425","横浜市プロジェクト","旭区","旭区（小学校）"
"481","6ab6ba46-e045-46da-9377-3c32b033c63c","本宿小学校","241-0023","kanagawa","横浜市旭区","本宿町16",NA,"35.469049","139.5448",NA,"d05287b3-18f1-4593-8d73-7241a5c04124","横浜市プロジェクト","旭区","旭区（小学校）"
"482","7cdc435c-d9dd-4215-a11c-2b803a4db6de","不動丸小学校","241-0005","kanagawa","横浜市旭区","白根三丁目33-1",NA,"35.483509","139.550545",NA,"e34a9a18-2a2b-459d-896f-8d4cf7d4d995","横浜市プロジェクト","旭区","旭区（小学校）"
"483","7f102066-3d95-4cce-844c-e48fb41fa363","左近山小学校","241-0015","kanagawa","横浜市旭区","左近山1997-2",NA,"35.462469","139.549601",NA,"86054083-b6f4-4678-a2d2-a8d63bf7e911","横浜市プロジェクト","旭区","旭区（小学校）"
"484","a01c14c6-9c98-4412-8ce1-9886c96a31fd","善部小学校","241-0823","kanagawa","横浜市旭区","善部町4-1",NA,"35.451305","139.516442",NA,"fb17e836-997e-47c4-a18e-41e48f6eb70b","横浜市プロジェクト","旭区","旭区（小学校）"
"485","cc961c4b-ca10-496d-9d7a-98137d03c632","中尾小学校","241-0815","kanagawa","横浜市旭区","中尾一丁目8-1",NA,"35.465992","139.522546",NA,"f98f8941-87f6-4724-a9a7-b3e82034231a","横浜市プロジェクト","旭区","旭区（小学校）"
"486","e1aec45c-5e5a-45ee-959c-d2d1fd9084e1","市沢小学校","241-0014","kanagawa","横浜市旭区","市沢町781",NA,"35.461665","139.558832",NA,"ec8dcded-d855-4ae1-9fbf-d5c72270ab69","横浜市プロジェクト","旭区","旭区（小学校）"
"487","e1d79721-2371-40dc-86be-a56fdd0049d7","今宿小学校","241-0032","kanagawa","横浜市旭区","今宿東町829",NA,"35.483929","139.535746",NA,"143a8f3e-7c34-4d1e-97a1-6e5e3eca8de5","横浜市プロジェクト","旭区","旭区（小学校）"
"488","e20c4456-cf48-4f36-99f4-7ad8d738ae73","万騎が原小学校","241-0834","kanagawa","横浜市旭区","大池町66",NA,"35.452766","139.533297",NA,"bba5888d-3177-46e4-aa46-b42f6c3a5e01","横浜市プロジェクト","旭区","旭区（小学校）"
"489","e33cb242-1f36-4d56-94ec-19a9284fa6bf","希望ケ丘小学校","241-0825","kanagawa","横浜市旭区","中希望が丘124",NA,"35.459201","139.513146",NA,"e350ca48-1f5b-4ab2-9bc1-241a2ac698ad","横浜市プロジェクト","旭区","旭区（小学校）"
"490","f46b0688-b101-460f-b1e0-74ad9aa03abb","白根小学校","241-0004","kanagawa","横浜市旭区","中白根一丁目9-1",NA,"35.48792","139.54447",NA,"80c35cf6-48bf-4246-ad01-5cd797fd76f6","横浜市プロジェクト","旭区","旭区（小学校）"
"330","43eb193f-3009-49b5-8161-00a043cc256a","左近山特別支援学校","241-0831","kanagawa","横浜市旭区","左近山1011",NA,"35.457107","139.556604",NA,"ea010d18-7762-4452-bd57-319e848cbc79","横浜市プロジェクト","旭区","旭区（特別支援学校）"
"331","48f24662-e465-41d7-a89c-25e8a4deed8c","若葉台特別支援学校","241-0801","kanagawa","横浜市旭区","若葉台二丁目1-1",NA,"35.502727","139.502958",NA,"5a121f01-6089-4b17-878f-ddfdf479dcdd","横浜市プロジェクト","旭区","旭区（特別支援学校）"
"440","1836d0a3-18df-4b1b-bf2e-8d54ddc783ea","小山台中学校","247-0002","kanagawa","横浜市栄区","小山台一丁目14-1",NA,"35.3807","139.558679",NA,"8205c316-2c89-4e2a-9050-f2a7b8f3348c","横浜市プロジェクト","栄区","栄区（中学校）"
"441","4014b5ce-74ad-49eb-bf5c-d0322cb4bd95","上郷中学校","247-0026","kanagawa","横浜市栄区","犬山町6-2",NA,"35.357753","139.572583",NA,"e3c4016a-d9e9-4dd9-83d3-e75a3593677b","横浜市プロジェクト","栄区","栄区（中学校）"
"442","40d13d42-e1c5-4833-8e7a-36da1377f5af","桂台中学校","247-0034","kanagawa","横浜市栄区","桂台中5-1",NA,"35.353747","139.564364",NA,"e391b6f6-c718-49b7-a157-7d918562a20b","横浜市プロジェクト","栄区","栄区（中学校）"
"443","7416e89b-d8c3-4d99-8c7a-52057b293c71","飯島中学校","244-0842","kanagawa","横浜市栄区","飯島町746-1",NA,"35.372605","139.531858",NA,"08e0348f-86d0-4fc6-a4e7-e4c1b0626bff","横浜市プロジェクト","栄区","栄区（中学校）"
"444","9a25d0d7-340b-492e-b4a9-4c70d76557c7","本郷中学校","247-0007","kanagawa","横浜市栄区","桂町84-14",NA,"35.364508","139.54976",NA,"8ee2a67d-3595-4914-9c6d-7b29b0205666","横浜市プロジェクト","栄区","栄区（中学校）"
"445","e9e4511f-589d-4771-9d79-357df312c1f1","西本郷中学校","247-0007","kanagawa","横浜市栄区","小菅ケ谷一丁目29-1",NA,"35.363841","139.543025",NA,"585d43b3-634c-4b5b-94a5-2c04e1ebe481","横浜市プロジェクト","栄区","栄区（中学校）"
"351","012d421e-bcf3-4d05-8efd-d37994dc0759","飯島小学校","244-0842","kanagawa","横浜市栄区","飯島町771-2",NA,"35.373261","139.535364",NA,"55cd4de1-5fff-4440-a764-af7343aa78bb","横浜市プロジェクト","栄区","栄区（小学校）"
"352","08aee8d8-b493-4abb-ace9-c2e3a1f53b5d","庄戸小学校","247-0022","kanagawa","横浜市栄区","庄戸一丁目15-1",NA,"35.352455","139.584415",NA,"f1cd85f0-d21c-4440-95d0-28afd5b11c28","横浜市プロジェクト","栄区","栄区（小学校）"
"353","1d0f14dc-6059-425a-95a4-697142555226","西本郷小学校","247-0007","kanagawa","横浜市栄区","小菅ケ谷二丁目22-1",NA,"35.365915","139.541549",NA,"8aaab9af-5f4d-4049-8368-71b8ea625199","横浜市プロジェクト","栄区","栄区（小学校）"
"354","353878a0-af68-4db3-bdf4-fb1da04db348","笠間小学校","247-0006","kanagawa","横浜市栄区","笠間三丁目28-1",NA,"35.362513","139.532285",NA,"78c04f03-c302-4e58-9b1a-5bddad97042f","横浜市プロジェクト","栄区","栄区（小学校）"
"355","3b76b0d4-2de4-4f3f-934c-2683771a34de","上郷小学校","247-0026","kanagawa","横浜市栄区","犬山町6-1",NA,"35.357535","139.571727",NA,"6ea2f36b-aa5d-473d-909e-7ffd8a847081","横浜市プロジェクト","栄区","栄区（小学校）"
"356","68df28bb-a1cb-4f21-9f50-9ec1cdd6cb21","小山台小学校","247-0002","kanagawa","横浜市栄区","小山台一丁目15-1",NA,"35.380232","139.557678",NA,"59bde861-8697-44ac-bee5-2fb8a2c4fd53","横浜市プロジェクト","栄区","栄区（小学校）"
"357","73f8f707-1a6e-47e6-ae62-cdb82aff4a41","小菅ケ谷小学校","247-0008","kanagawa","横浜市栄区","本郷台四丁目31-1",NA,"35.376786","139.54791",NA,"9a1ce9d6-96df-4f9d-921e-c3fee05f8bae","横浜市プロジェクト","栄区","栄区（小学校）"
"358","7efee72f-3496-4a40-85a3-b997bce07d95","本郷小学校","247-0015","kanagawa","横浜市栄区","中野町16-1",NA,"35.363222","139.561132",NA,"30a1c24a-201e-4adf-8474-1689f2d8dc42","横浜市プロジェクト","栄区","栄区（小学校）"
"359","96015e0d-7ef8-4066-9df3-18190651d376","桜井小学校","247-0013","kanagawa","横浜市栄区","上郷町242-2",NA,"35.366127","139.572364",NA,"bbdde4fe-6a63-4fbd-8e65-f685631d3794","横浜市プロジェクト","栄区","栄区（小学校）"
"360","dbd58659-c7f7-431d-8e1e-1aaa36bf1a92","公田小学校","247-0014","kanagawa","横浜市栄区","公田町354-3",NA,"35.354273","139.552873",NA,"c9333fe2-bcc3-4167-9e69-bf5ed5c9eb9d","横浜市プロジェクト","栄区","栄区（小学校）"
"361","ddc88cc5-9133-4a53-af29-9dadcb2d34ce","千秀小学校","244-0844","kanagawa","横浜市栄区","田谷町1832",NA,"35.371612","139.519986",NA,"bdb01775-4a69-4b62-8f02-d96902e5b821","横浜市プロジェクト","栄区","栄区（小学校）"
"362","e06e0b91-69ba-4ad6-b81a-3bf816358f68","豊田小学校","244-0841","kanagawa","横浜市栄区","長沼町125-4",NA,"35.382635","139.535969",NA,"f756af59-5f73-440f-8272-c02868792742","横浜市プロジェクト","栄区","栄区（小学校）"
"363","eac41a37-165c-4c66-a02d-cb38525d34b8","本郷台小学校","247-0015","kanagawa","横浜市栄区","本郷台一丁目6-1",NA,"35.371407","139.549183",NA,"8a8b9869-33a3-4c23-a7e2-4cf493a99d5a","横浜市プロジェクト","栄区","栄区（小学校）"
"364","f6ee9a9e-48e3-4c47-891a-0080a325d0c7","桂台小学校","247-0033","kanagawa","横浜市栄区","桂台南一丁目1-1",NA,"35.352649","139.563775",NA,"909809b5-7c08-42b2-ac85-9ff9d2f6a8ba","横浜市プロジェクト","栄区","栄区（小学校）"
"84","800ec801-ba60-4bb9-bd86-03b514d0b8bd","本郷特別支援学校","247-0007","kanagawa","横浜市栄区","小菅ケ谷三丁目37-12",NA,"35.37103","139.557509",NA,"0a0edf89-fcfa-435e-804a-84420d28d3f4","横浜市プロジェクト","栄区","栄区（特別支援学校）"
"37","01c5590c-a2bc-4a31-9832-75795fa88419","上飯田中学校","245-0018","kanagawa","横浜市泉区","上飯田町2254",NA,"35.429716","139.481642",NA,"55c92c6a-7f97-48ef-a84e-15d98d1e324e","横浜市プロジェクト","泉区","泉区（中学校）"
"38","1accf85c-d67b-498e-b45e-c12b46aad851","緑園学園（後期課程）","245-0002","kanagawa","横浜市泉区","緑園五丁目28",NA,"35.441855","139.528636",NA,"ed0bafed-d35c-49be-8819-f4699fee27bf","横浜市プロジェクト","泉区","泉区（中学校）"
"39","2a97a6dc-e6fa-42e2-a262-b8db67d4a16f","岡津中学校","245-0003","kanagawa","横浜市泉区","岡津町2346",NA,"35.42928","139.524062",NA,"eb64822c-b9c0-44ec-9c99-144d1de8d279","横浜市プロジェクト","泉区","泉区（中学校）"
"40","81b4ac8b-cf0b-47f4-b233-b83a856bfd49","中和田中学校","245-0016","kanagawa","横浜市泉区","和泉中央北二丁目5番1号",NA,"35.415851","139.498669",NA,"15447eeb-04b9-4a9f-8250-d43d982bff0f","横浜市プロジェクト","泉区","泉区（中学校）"
"41","9044190d-20b5-46cf-9177-268da1f305b6","いずみ野中学校","245-0016","kanagawa","横浜市泉区","和泉町6201",NA,"35.432321","139.497809",NA,"aa64b6c0-f21e-42a2-97dc-47f42331dc72","横浜市プロジェクト","泉区","泉区（中学校）"
"42","ace8633a-1adb-49f6-923d-495e0971140f","泉が丘中学校","245-0016","kanagawa","横浜市泉区","和泉が丘三丁目29-1",NA,"35.405096","139.492915",NA,"b1ddc697-fa32-4668-9de0-5f0e05f08df8","横浜市プロジェクト","泉区","泉区（中学校）"
"43","b1d8afdb-1eef-40ce-a250-3717c0461ec5","領家中学校","245-0004","kanagawa","横浜市泉区","領家四丁目3-1",NA,"35.415307","139.520562",NA,"83692719-4bb4-4d3c-bd18-5f2e52e4c0b3","横浜市プロジェクト","泉区","泉区（中学校）"
"44","c6b3813b-015e-43a8-bb6d-e30e1b8c3bea","中田中学校","245-0012","kanagawa","横浜市泉区","中田北二丁目20-1",NA,"35.414599","139.505452",NA,"d07d4923-0e6a-44dd-a653-6092826a7a50","横浜市プロジェクト","泉区","泉区（中学校）"
"224","1d976182-4246-4a08-b7be-89584a55a78e","西が岡小学校","245-0006","kanagawa","横浜市泉区","西が岡三丁目12-11",NA,"35.419184","139.515446",NA,"bcc005dc-b027-4ef0-8409-ba51316f8148","横浜市プロジェクト","泉区","泉区（小学校）"
"225","24c45255-fed8-4ab5-8340-437f5ee1db82","緑園学園（前期課程）","245-0002","kanagawa","横浜市泉区","緑園五丁目28",NA,"35.441855","139.528636",NA,"4a14f158-2b6e-48cc-b514-c3bce03eed9d","横浜市プロジェクト","泉区","泉区（小学校）"
"226","3409ad5b-945b-4cc9-891d-1c99ef661c9e","いずみ野小学校","245-0016","kanagawa","横浜市泉区","和泉町6211",NA,"35.434359","139.494336",NA,"032b1fbb-af7c-4765-b013-ceef1cd64b3a","横浜市プロジェクト","泉区","泉区（小学校）"
"227","45cb8871-9193-494f-8f2b-62182f87f2e8","上飯田小学校","245-0018","kanagawa","横浜市泉区","上飯田町1331",NA,"35.424107","139.480659",NA,"5f19405a-6d03-46ed-b43b-929d17436215","横浜市プロジェクト","泉区","泉区（小学校）"
"228","61565b04-8883-454c-9392-48ffec1a0783","葛野小学校","245-0014","kanagawa","横浜市泉区","中田南五丁目15-1",NA,"35.404263","139.507749",NA,"7fdbc18b-1157-4c44-b3b7-9f6248921e2d","横浜市プロジェクト","泉区","泉区（小学校）"
"229","790a1d93-4c57-4cd6-980c-05fc78fc8488","中和田小学校","245-0023","kanagawa","横浜市泉区","和泉中央南四丁目9番1号",NA,"35.415002","139.490128",NA,"5f2f4273-7ef6-42d3-962f-dd72e9a48db4","横浜市プロジェクト","泉区","泉区（小学校）"
"230","829574cb-8776-402f-8b1c-290f4306c46d","和泉小学校","245-0016","kanagawa","横浜市泉区","和泉中央北一丁目31番13号",NA,"35.422802","139.495996",NA,"8e770b04-f304-4bc9-bf7b-b1c8bc355751","横浜市プロジェクト","泉区","泉区（小学校）"
"231","8defedfc-36cd-41f0-a62e-84758479ccda","岡津小学校","245-0003","kanagawa","横浜市泉区","岡津町2311",NA,"35.428316","139.524699",NA,"9165024c-cc3b-44ca-88b6-f3f0291c1815","横浜市プロジェクト","泉区","泉区（小学校）"
"232","9b127015-1211-4a29-9fce-35992fa39db9","新橋小学校","245-0009","kanagawa","横浜市泉区","新橋町909",NA,"35.434018","139.505785",NA,"83194583-194d-4d56-8136-6d2305b2cf0c","横浜市プロジェクト","泉区","泉区（小学校）"
"233","bfed4ed0-eef5-4bb3-8590-02a4a98bf290","飯田北いちょう小学校","245-0018","kanagawa","横浜市泉区","上飯田町3795",NA,"35.434387","139.481483",NA,"36940680-1378-4db9-aa77-fe8b11400e30","横浜市プロジェクト","泉区","泉区（小学校）"
"234","dc9e7908-05c2-4a02-91c0-017fe4caf66c","伊勢山小学校","245-0016","kanagawa","横浜市泉区","和泉中央南二丁目27番1号",NA,"35.41092","139.496865",NA,"84f69aac-e858-4b81-875a-634f3a161e6c","横浜市プロジェクト","泉区","泉区（小学校）"
"235","e56ab077-1f3f-4887-8e30-27e022081586","中和田南小学校","245-0016","kanagawa","横浜市泉区","和泉町987",NA,"35.398363","139.484067",NA,"d33238b9-9e46-4df6-839f-eb83be5830f4","横浜市プロジェクト","泉区","泉区（小学校）"
"236","f0eed948-82d2-4ca0-ba44-6e830213f629","中田小学校","245-0014","kanagawa","横浜市泉区","中田南四丁目4-1",NA,"35.410951","139.508328",NA,"15397140-800e-48b4-b11d-5e31c51a244c","横浜市プロジェクト","泉区","泉区（小学校）"
"237","f193a196-dc8f-43b6-ab6f-02261e386d6c","東中田小学校","245-0013","kanagawa","横浜市泉区","中田東四丁目43-1",NA,"35.417436","139.512116",NA,"e62b36c1-627c-46ec-a1ff-e28f4655961c","横浜市プロジェクト","泉区","泉区（小学校）"
"238","f62e93a1-3d5f-43dc-8300-177bebb36583","下和泉小学校","245-0016","kanagawa","横浜市泉区","和泉町1436",NA,"35.401291","139.492682",NA,"f0443b2b-8057-4d88-9182-058597775138","横浜市プロジェクト","泉区","泉区（小学校）"
"403","1b965d8b-c574-4d57-863b-38295929dec1","日吉台中学校","223-0062","kanagawa","横浜市港北区","日吉本町四丁目9-1",NA,"35.547901","139.636305",NA,"d55147ef-bd02-4e18-9197-bcc4536b30a8","横浜市プロジェクト","港北区","港北区（中学校）"
"404","2da2c3d0-835b-407d-a3d8-366f3f489520","日吉台西中学校","223-0062","kanagawa","横浜市港北区","日吉本町五丁目44-1",NA,"35.55115","139.626951",NA,"c3d09444-9605-4e9c-9744-3e92a0ce524c","横浜市プロジェクト","港北区","港北区（中学校）"
"405","2e3ea10c-068e-4711-8710-d3620a19aeed","新羽中学校","223-0057","kanagawa","横浜市港北区","新羽町1434-4",NA,"35.522596","139.60715",NA,"b105ef50-5f6c-4d66-ada4-d107783e5a93","横浜市プロジェクト","港北区","港北区（中学校）"
"406","6f6192fa-e73f-4853-b178-e180bc1ca8a9","大綱中学校","222-0037","kanagawa","横浜市港北区","大倉山三丁目40-1",NA,"35.520636","139.624928",NA,"c88cbfa3-0c4a-41f5-a234-71cef939f3e1","横浜市プロジェクト","港北区","港北区（中学校）"
"407","98b629af-9f63-4bec-9e6a-b3b737c1d50f","新田中学校","223-0058","kanagawa","横浜市港北区","新吉田東五丁目25-1",NA,"35.5405","139.622189",NA,"8617abb1-6197-4015-aea3-fdd3fe61337b","横浜市プロジェクト","港北区","港北区（中学校）"
"408","b55baa87-bbff-4e8e-8e38-4dd0fc233b90","篠原中学校","222-0026","kanagawa","横浜市港北区","篠原町1342-3",NA,"35.504534","139.620944",NA,"c7f7eee6-2b99-4fe1-bd76-306e875fdaa4","横浜市プロジェクト","港北区","港北区（中学校）"
"409","b8ad8041-ce7b-4ab2-901d-2cb73c188986","樽町中学校","222-0026","kanagawa","横浜市港北区","樽町四丁目15-1",NA,"35.528815","139.642061",NA,"e7dd699f-be28-479d-b524-67961814a492","横浜市プロジェクト","港北区","港北区（中学校）"
"410","c2ea5d3f-be64-489d-90a3-adba0e3385d6","高田中学校","223-0063","kanagawa","横浜市港北区","高田町2439",NA,"35.556752","139.617399",NA,"83b0552c-7a49-4a6d-872e-0c2f7ce704e7","横浜市プロジェクト","港北区","港北区（中学校）"
"411","fbd1a69b-70f2-409c-927c-de5b1fd63a84","城郷中学校","222-0036","kanagawa","横浜市港北区","小机町325",NA,"35.505247","139.587571",NA,"7a7c3123-dfb1-4889-ba2e-a2672796ea47","横浜市プロジェクト","港北区","港北区（中学校）"
"3","05b869ae-bc95-4e22-a064-0d081f0617f7","下田小学校","223-0064","kanagawa","横浜市港北区","下田町四丁目10-1",NA,"35.557076","139.629783",NA,"f9c13af0-89b7-4062-8637-0d91cf720ffb","横浜市プロジェクト","港北区","港北区（小学校）"
"4","1584a814-ddfc-4124-b4c9-0807115d84d5","高田小学校","223-0063","kanagawa","横浜市港北区","高田町1774",NA,"35.556504","139.61941",NA,"71987687-f7e7-4794-9307-9c3f08558e86","横浜市プロジェクト","港北区","港北区（小学校）"
"5","201f8412-9434-4694-bed8-60396a7b68b5","篠原小学校","222-0022","kanagawa","横浜市港北区","篠原東三丁目27-1",NA,"35.50283","139.627487",NA,"bd354878-df9f-4356-acc5-b57d69f6301a","横浜市プロジェクト","港北区","港北区（小学校）"
"6","21eb313e-fb6a-41b7-8d5c-86da97354ae7","大豆戸小学校","222-0032","kanagawa","横浜市港北区","大豆戸町759",NA,"35.515698","139.62202",NA,"e04de9e2-9402-45fe-8b57-0b1cc6acb687","横浜市プロジェクト","港北区","港北区（小学校）"
"7","22f3fa4a-ad03-4a45-b5e5-a7fccde043dc","新羽小学校","223-0057","kanagawa","横浜市港北区","新羽町1452-2",NA,"35.522724","139.60793",NA,"eb3f2977-c2c8-4788-aad2-38393a810051","横浜市プロジェクト","港北区","港北区（小学校）"
"8","22f6dc5f-8cc1-47c4-8ba0-63c9c0f53b63","新吉田小学校","223-0058","kanagawa","横浜市港北区","新吉田東六丁目44-1",NA,"35.538503","139.617953",NA,"edeb5f58-eb98-4ef8-89c2-e67d6711d8e5","横浜市プロジェクト","港北区","港北区（小学校）"
"9","2502c423-c418-44ed-8eb2-031d15313efa","篠原西小学校","222-0026","kanagawa","横浜市港北区","篠原町1241-1",NA,"35.502026","139.615108",NA,"311d3ab7-d240-4200-83b2-950a4dca1569","横浜市プロジェクト","港北区","港北区（小学校）"
"10","3125e380-6922-4e88-b46f-c815aca0cd64","高田東小学校","223-0065","kanagawa","横浜市港北区","高田東二丁目33-1",NA,"35.552104","139.625396",NA,"d801a94e-ddec-4254-8187-c51c5e543e28","横浜市プロジェクト","港北区","港北区（小学校）"
"11","3a9589d0-5bb5-4420-8f83-a2c68bcf2af0","綱島東小学校","223-0052","kanagawa","横浜市港北区","綱島東三丁目1-30",NA,"35.537405","139.640273",NA,"3c1456ba-6479-40df-85b4-c2fb89218e59","横浜市プロジェクト","港北区","港北区（小学校）"
"12","4186a33d-dc89-4b50-9924-70dde2035dd8","新吉田第二小学校","223-0056","kanagawa","横浜市港北区","新吉田町491-1",NA,"35.549678","139.612831",NA,"337d5d43-0887-48d4-b1c9-49745eb36462","横浜市プロジェクト","港北区","港北区（小学校）"
"13","7c9a7e16-c8b7-4120-8e02-63c0eea25051","大綱小学校","222-0037","kanagawa","横浜市港北区","大倉山4丁目2-1",NA,"35.518142","139.625934",NA,"6e779800-7e03-4098-a558-44793f22e55e","横浜市プロジェクト","港北区","港北区（小学校）"
"14","88d2ab2c-7214-44e7-b974-4283945db6c3","日吉台小学校","223-0062","kanagawa","横浜市港北区","日吉本町一丁目34-21",NA,"35.552837","139.642788",NA,"e6230c02-5377-416e-8c79-e22066b2162c","横浜市プロジェクト","港北区","港北区（小学校）"
"15","902c3d5b-4304-42c5-b5ac-89d3ab94145c","小机小学校","222-0036","kanagawa","横浜市港北区","小机町1382-10",NA,"35.505416","139.597725",NA,"fe92939f-ddc1-4dfa-afee-3c35dea780fe","横浜市プロジェクト","港北区","港北区（小学校）"
"16","916e9788-aa1b-4ea2-8bed-3d0627283b3e","太尾小学校","222-0037","kanagawa","横浜市港北区","大倉山七丁目34-1",NA,"35.524298","139.619264",NA,"4f7ea8c3-6c32-4f68-98a7-b4d696089e5a","横浜市プロジェクト","港北区","港北区（小学校）"
"17","96e5ad0c-770f-4781-9920-7d308611d8bc","日吉南小学校","223-0062","kanagawa","横浜市港北区","日吉本町四丁目2-6",NA,"35.54472","139.638953",NA,"0efbe6f2-7b19-4abd-a1c0-e7b15d6f5ba5","横浜市プロジェクト","港北区","港北区（小学校）"
"18","9dd8ef75-77dc-4090-9979-f36b4b397656","菊名小学校","222-0011","kanagawa","横浜市港北区","菊名五丁目18-1",NA,"35.512811","139.635217",NA,"d225a549-d0cc-40df-aa9d-30c230fa83da","横浜市プロジェクト","港北区","港北区（小学校）"
"19","a00e7b35-f50e-49c8-93a0-21b694bf514f","綱島小学校","223-0053","kanagawa","横浜市港北区","綱島西三丁目11-1",NA,"35.536625","139.628703",NA,"09c580de-c7ee-4560-b29a-285967623f8a","横浜市プロジェクト","港北区","港北区（小学校）"
"20","cdc6f299-8f43-401f-81c5-22fbbb45b7e4","駒林小学校","222-0062","kanagawa","横浜市港北区","日吉本町二丁目51-1",NA,"35.552238","139.634622",NA,"e3b190d7-969f-4494-bcc7-9654c4dcb345","横浜市プロジェクト","港北区","港北区（小学校）"
"21","cfa211b0-89df-413e-b6ef-a59206f4078c","箕輪小学校","223-0051","kanagawa","横浜市港北区","箕輪町二丁目7-1",NA,"35.544863","139.645289",NA,"959deaf9-bfe1-4037-af3e-c0ecbbad866e","横浜市プロジェクト","港北区","港北区（小学校）"
"22","d413de10-6ca9-4b3a-a6ad-c872dfb4305b","新田小学校","223-0056","kanagawa","横浜市港北区","新吉田町3226",NA,"35.533095","139.60987",NA,"e76e9964-3a71-419f-941d-085cc1cb606b","横浜市プロジェクト","港北区","港北区（小学校）"
"23","d534d616-89dc-4474-9a4e-fea734a659e0","北綱島小学校","223-0053","kanagawa","横浜市港北区","綱島西五丁目14-40",NA,"35.543966","139.630831",NA,"f8390f84-e38d-4262-aeaf-270d7adf61be","横浜市プロジェクト","港北区","港北区（小学校）"
"24","d9901ebe-3045-4a34-83a4-cdaa8b0dfedd","師岡小学校","222-0002","kanagawa","横浜市港北区","師岡町986",NA,"35.523769","139.638793",NA,"fedb3fea-1c74-4169-8c80-688c98089427","横浜市プロジェクト","港北区","港北区（小学校）"
"25","e081e40c-0e93-414f-84a0-9b5439457c16","矢上小学校","223-0061","kanagawa","横浜市港北区","日吉三丁目23-1",NA,"35.554154","139.657605",NA,"af2f5fdd-5b45-4ff6-bf9b-17fb19b42b16","横浜市プロジェクト","港北区","港北区（小学校）"
"26","e3e8131d-50b0-4ca8-a8a9-f732ec946108","港北小学校","222-0011","kanagawa","横浜市港北区","菊名二丁目15-1",NA,"35.499973","139.635606",NA,"2b2ff21c-e2ec-4925-9e6c-cf1de8dc242d","横浜市プロジェクト","港北区","港北区（小学校）"
"27","f4c53cfb-548b-4d26-91b2-850e54296339","大曽根小学校","222-0003","kanagawa","横浜市港北区","大曽根二丁目31-1",NA,"35.53203","139.630217",NA,"b2b6a21e-1ad1-452e-bff8-e66fb3e8c946","横浜市プロジェクト","港北区","港北区（小学校）"
"510","bce68602-c407-45e5-80ae-c6925117f4c9","城郷小学校","222-0035","kanagawa","横浜市港北区","鳥山町814",NA,"35.5051043","139.6002316",NA,"507d152e-70a8-41a6-89d8-0616fbd4e5e3","横浜市プロジェクト","港北区","港北区（小学校）"
"329","9a3e8dd4-474e-436c-9dc2-cbadc9bcd515","北綱島特別支援学校","223-0053","kanagawa","横浜市港北区","綱島西五丁目14-54",NA,"35.543429","139.630744",NA,"de20cbfd-eac9-42e9-b7d3-2f1d90bc9f83","横浜市プロジェクト","港北区","港北区（特別支援学校）"
"457","07bc79a7-c8e1-4136-a605-b028ba1fa4be","日野南中学校","234-0054","kanagawa","横浜市港南区","港南台四丁目37-1",NA,"35.375513","139.56901",NA,"c844fff0-c9dd-4be0-a1e7-e1aa2386029e","横浜市プロジェクト","港南区","港南区（中学校）"
"458","14b7f8e3-6160-4126-a282-b58e28e58ac9","港南台第一中学校","234-0054","kanagawa","横浜市港南区","港南台六丁目6-1",NA,"35.37155","139.585864",NA,"6d294272-8656-427c-bff8-043961863144","横浜市プロジェクト","港南区","港南区（中学校）"
"459","3703e2f6-01d9-4342-9873-391e110c818b","東永谷中学校","233-0011","kanagawa","横浜市港南区","東永谷二丁目14-7",NA,"35.405856","139.578571",NA,"c99738b6-8680-4ba0-bb1f-6ae49c7a3421","横浜市プロジェクト","港南区","港南区（中学校）"
"460","63ddbe6e-f205-42dd-8fc1-86c6d7ddcd05","港南中学校","233-0004","kanagawa","横浜市港南区","港南中央通6-1",NA,"35.401329","139.590975",NA,"2c4a6353-fbe6-4e17-96bf-b0bc81704b67","横浜市プロジェクト","港南区","港南区（中学校）"
"461","6c3dc93b-6791-4f80-b9d8-29c8b38dd74a","上永谷中学校","233-0012","kanagawa","横浜市港南区","上永谷四丁目12-14",NA,"35.409731","139.569866",NA,"89ba77ba-fd04-4c5e-88ec-04e53ae2d5e3","横浜市プロジェクト","港南区","港南区（中学校）"
"462","780a9b98-16b7-4933-ae71-ca32c45c0aa3","芹が谷中学校","233-0006","kanagawa","横浜市港南区","芹が谷二丁目7-1",NA,"35.416817","139.574623",NA,"086b3f87-fcd3-4cd3-9f41-3b0acda7099a","横浜市プロジェクト","港南区","港南区（中学校）"
"463","a0fa91ef-e460-47fa-90fe-62b9b4780958","日限山中学校","233-0015","kanagawa","横浜市港南区","日限山四丁目33-1",NA,"35.38649","139.557519",NA,"a0e69215-ee30-4e3c-b39a-948b0a4f6e61","横浜市プロジェクト","港南区","港南区（中学校）"
"464","cba485c7-94b5-4591-9938-dd3976a51259","丸山台中学校","233-0013","kanagawa","横浜市港南区","丸山台四丁目1-1",NA,"35.395005","139.565199",NA,"66682ab4-b7fa-40ee-a8b1-c7e9c9e9e81a","横浜市プロジェクト","港南区","港南区（中学校）"
"465","e2c1ea50-209e-47ad-b542-4818618d3c39","南高等学校附属中学校","233-0011","kanagawa","横浜市港南区","東永谷二丁目1-1",NA,"35.40539","139.579744",NA,"c419b844-0197-4a8b-9854-a0b2c913de4d","横浜市プロジェクト","港南区","港南区（中学校）"
"466","f74bb75c-3712-46f3-8c21-f481fb7d0228","笹下中学校","233-0003","kanagawa","横浜市港南区","港南五丁目8-1",NA,"35.397311","139.593334",NA,"12c0c01c-3db6-43ef-80d6-0c700ce30655","横浜市プロジェクト","港南区","港南区（中学校）"
"186","095fe118-87b3-4dee-a515-34cb24da6ccf","港南台第二小学校","234-0054","kanagawa","横浜市港南区","港南区港南台５−４−１",NA,"35.371867","139.579131",NA,"958a3b3e-0e90-4f80-a3a2-d5819e0d464b","横浜市プロジェクト","港南区","港南区（小学校）"
"187","0c937329-c99a-4fde-a042-a982ff871e5d","日野小学校","234-0051","kanagawa","横浜市港南区","日野七丁目11-1",NA,"35.387028","139.580066",NA,"6f64ef8a-f400-456f-adc6-08c663cc459b","横浜市プロジェクト","港南区","港南区（小学校）"
"188","2f47cbd3-9ce3-4d29-a7ea-2b4e77c1b092","日野南小学校","234-0055","kanagawa","横浜市港南区","日野南六丁目35-1",NA,"35.375388","139.562046",NA,"1be1eca7-b05f-415d-9632-9ef981b9843b","横浜市プロジェクト","港南区","港南区（小学校）"
"189","30daac15-5422-4baa-9c6e-a850e730266e","南台小学校","233-0003","kanagawa","横浜市港南区","港南五丁目6-1",NA,"35.396782","139.59195",NA,"ec6659c8-6af6-41d8-932e-e9a6173c2501","横浜市プロジェクト","港南区","港南区（小学校）"
"190","3b2f61c4-0d80-4d92-82cb-6fa725db43f8","港南台第一小学校","234-0054","kanagawa","横浜市港南区","港南台六丁目7-1",NA,"35.370301","139.586855",NA,"302f68e9-98fe-4c8e-8b77-8a43409ee01c","横浜市プロジェクト","港南区","港南区（小学校）"
"191","587c6d34-151c-4874-aa17-05523abaa841","上大岡小学校","233-0001","kanagawa","横浜市港南区","上大岡東三丁目11-1",NA,"35.404537","139.603737",NA,"a401a87e-0e2a-429f-967f-a0718bde55fa","横浜市プロジェクト","港南区","港南区（小学校）"
"192","5923ea28-2f12-4173-bae8-db2a8e2a50fb","永野小学校","233-0012","kanagawa","横浜市港南区","上永谷二丁目21-10",NA,"35.405812","139.570234",NA,"61cc3b70-bcfe-4ef2-b3e2-307834725c11","横浜市プロジェクト","港南区","港南区（小学校）"
"193","6056e017-4342-494d-9b5f-5e93112922d4","桜岡小学校","233-0007","kanagawa","横浜市港南区","大久保一丁目6-43",NA,"35.412424","139.59429",NA,"cc53f2be-23c8-4bdc-a553-41fc092d6db6","横浜市プロジェクト","港南区","港南区（小学校）"
"194","69062877-a528-4649-bbb1-93c824ac313d","港南台第三小学校","234-0054","kanagawa","横浜市港南区","港南台二丁目14-1",NA,"35.37906","139.583281",NA,"40443696-dd88-4378-ac25-c605372328d2","横浜市プロジェクト","港南区","港南区（小学校）"
"195","7897f4c0-03a8-4f04-abc1-365c95401b49","日限山小学校","233-0015","kanagawa","横浜市港南区","日限山二丁目16-1",NA,"35.393902","139.559971",NA,"96aabbab-555a-436e-bfdd-eddeea8590fa","横浜市プロジェクト","港南区","港南区（小学校）"
"196","7cf38723-793f-4bfb-b01c-f06112cf67aa","下永谷小学校","233-0011","kanagawa","横浜市港南区","東永谷一丁目36-1",NA,"35.40861","139.580872",NA,"cf91bc57-d8c3-4c1f-8d7d-66e62796fdb4","横浜市プロジェクト","港南区","港南区（小学校）"
"197","82de3e03-36ff-4897-93d9-8a38ad0b2091","吉原小学校","234-0051","kanagawa","横浜市港南区","日野二丁目20-40",NA,"35.397172","139.582858",NA,"8668ed08-d646-4b29-aa00-ad89b051c72e","横浜市プロジェクト","港南区","港南区（小学校）"
"198","82e1c369-1078-4977-bac7-6d856612804d","日下小学校","234-0052","kanagawa","横浜市港南区","笹下三丁目9-1",NA,"35.390844","139.601661",NA,"34bcd798-146c-4a3b-a565-f1c40dd20d17","横浜市プロジェクト","港南区","港南区（小学校）"
"199","b02100fb-5fe0-45ce-9ed5-89c9530ff057","相武山小学校","233-0012","kanagawa","横浜市港南区","上永谷一丁目7-5",NA,"35.402669","139.580325",NA,"dab3f50f-fb28-49da-9f1c-73c131dce85a","横浜市プロジェクト","港南区","港南区（小学校）"
"200","be0e762a-8cdd-4122-b71b-661f16c2f95d","丸山台小学校","233-0013","kanagawa","横浜市港南区","丸山台三丁目8-1",NA,"35.400901","139.568099",NA,"402d887f-87f0-447c-bd92-3b86aa2538e3","横浜市プロジェクト","港南区","港南区（小学校）"
"201","d6b51007-9f83-4d73-821d-df4c1bd9e004","小坪小学校","234-0054","kanagawa","横浜市港南区","港南台四丁目11-1",NA,"35.376315","139.574443",NA,"bf5f595e-4d2b-408b-a615-3310eef53e17","横浜市プロジェクト","港南区","港南区（小学校）"
"202","dca96f91-a8c1-4133-9488-a1cff80b4510","芹が谷南小学校","233-0006","kanagawa","横浜市港南区","芹が谷四丁目22-1",NA,"35.412665","139.571791",NA,"188b1109-d262-4e89-9765-2538a0b3f97b","横浜市プロジェクト","港南区","港南区（小学校）"
"203","df489aa2-8a12-48d8-9c0d-627faf6e95f4","野庭すずかけ小学校","234-0056","kanagawa","横浜市港南区","野庭町346-2",NA,"35.388154","139.574871",NA,"e867392f-5d7b-4e5f-bed6-29be374f59e1","横浜市プロジェクト","港南区","港南区（小学校）"
"204","e01c4810-4d47-4a2f-934f-33017151024d","芹が谷小学校","233-0006","kanagawa","横浜市港南区","芹が谷三丁目32-1",NA,"35.415604","139.573707",NA,"53f6fcdb-367d-482e-8198-a3c3de376b03","横浜市プロジェクト","港南区","港南区（小学校）"
"205","f722dcd9-a3b4-4b08-bd33-7aebb412f6eb","永谷小学校","233-0016","kanagawa","横浜市港南区","下永谷五丁目48-15",NA,"35.411717","139.558782",NA,"96909721-258f-4b42-9051-4767c8c5d696","横浜市プロジェクト","港南区","港南区（小学校）"
"206","fbefa8cf-f8ed-4764-8624-0682ba5b4d39","下野庭小学校","234-0056","kanagawa","横浜市港南区","野庭町602",NA,"35.393293","139.571995",NA,"36832e06-86fe-4db6-978e-caa342ebfdbe","横浜市プロジェクト","港南区","港南区（小学校）"
"112","27c30fd8-1b80-459a-92ea-864f08203c0f","港南台ひの特別支援学校","234-0054","kanagawa","横浜市港南区","港南台五丁目３−２",NA,"35.371628","139.581151",NA,"fdd96a8d-b275-4c6c-ae54-73759977eb45","横浜市プロジェクト","港南区","港南区（特別支援学校）"
"113","8256ed62-d560-48a7-9f03-27b50f00a288","日野中央高等特別支援学校","234-0053","kanagawa","横浜市港南区","日野中央二丁目25-3",NA,"35.386446","139.587332",NA,"c87fdffc-a6c1-47f0-b379-a68265a51b11","横浜市プロジェクト","港南区","港南区（特別支援学校）"
"209","fd11e510-b706-4a93-b547-7d62820b7b82","南高等学校","233-0011","kanagawa","横浜市港南区","横浜市港南区東永谷二丁目1-1",NA,"35.40539","139.579744",NA,"4a3b60b1-dbfc-44da-97b3-ed2b93393717","横浜市プロジェクト","港南区","港南区（高等学校）"
"85","1db38280-a851-428b-b3d4-9e52c74de22c","原中学校","246-0025","kanagawa","横浜市瀬谷区","阿久和西二丁目1-6",NA,"35.454727","139.497591",NA,"d4594b26-1d1e-4ac8-84c0-049c989048c1","横浜市プロジェクト","瀬谷区","瀬谷区（中学校）"
"86","238f7a93-ac69-4fcd-8ef2-523ff9966ee5","南瀬谷中学校","246-0032","kanagawa","横浜市瀬谷区","南台二丁目2-8",NA,"35.45771","139.485497",NA,"7431bb3a-e4b4-4f6a-acab-9387d0181a11","横浜市プロジェクト","瀬谷区","瀬谷区（中学校）"
"87","bae9733d-042a-4bca-a1b5-87f26301a23e","東野中学校","246-0012","kanagawa","横浜市瀬谷区","東野130",NA,"35.476613","139.496319",NA,"597e930d-3f20-4f8d-956d-0c9445cbc6e8","横浜市プロジェクト","瀬谷区","瀬谷区（中学校）"
"88","bd9ad3c7-d367-49c1-8cf6-8dde100961fc","下瀬谷中学校","246-0035","kanagawa","横浜市瀬谷区","下瀬谷二丁目16-7",NA,"35.456599","139.482318",NA,"ce57d428-7c23-4427-961a-d66e193dffc0","横浜市プロジェクト","瀬谷区","瀬谷区（中学校）"
"89","c40a6173-d067-4ef2-95d2-92c2e42c4aea","瀬谷中学校","246-0014","kanagawa","横浜市瀬谷区","中央5-41",NA,"35.47177","139.480914",NA,"0c0e3430-5c53-4c51-9059-bb55fc5282db","横浜市プロジェクト","瀬谷区","瀬谷区（中学校）"
"392","247be6f0-03bc-4f34-b4ee-bac13944c6ee","南瀬谷小学校","246-0034","kanagawa","横浜市瀬谷区","南瀬谷一丁目1-1",NA,"35.457447","139.486747",NA,"5a3bdcd2-a477-4185-822c-fdf783089d66","横浜市プロジェクト","瀬谷区","瀬谷区（小学校）"
"393","27f65e76-914b-4029-aa36-80f84e8a082b","瀬谷小学校","246-0013","kanagawa","横浜市瀬谷区","相沢四丁目1-1",NA,"35.472291","139.484305",NA,"5cbda2f8-57ff-4c3f-9f1d-f8519f7b8752","横浜市プロジェクト","瀬谷区","瀬谷区（小学校）"
"394","51b76623-f07c-4253-83d2-d84d41894171","三ツ境小学校","246-0022","kanagawa","横浜市瀬谷区","三ツ境157",NA,"35.460899","139.498485",NA,"a2efe4d1-32a9-41a1-8be2-b763b2c22f70","横浜市プロジェクト","瀬谷区","瀬谷区（小学校）"
"395","9cdf5f96-dab6-431a-af98-63671c7b1afe","瀬谷さくら小学校","246-0035","kanagawa","横浜市瀬谷区","下瀬谷三丁目58-1",NA,"35.45165","139.481339",NA,"c5b95410-496e-4d74-a843-2545a1275cc9","横浜市プロジェクト","瀬谷区","瀬谷区（小学校）"
"396","b594fc21-f19a-4f58-ba04-ab66a27a619e","上瀬谷小学校","246-0003","kanagawa","横浜市瀬谷区","瀬谷町7140",NA,"35.489473","139.476872",NA,"b738b46f-2996-4cc0-a6e7-b9c81052508a","横浜市プロジェクト","瀬谷区","瀬谷区（小学校）"
"397","b7fc4b38-931a-47e3-aad5-12682624c609","阿久和小学校","246-0026","kanagawa","横浜市瀬谷区","阿久和南四丁目8-2",NA,"35.441158","139.497104",NA,"45d84622-7fad-4ee4-a940-b4b42b788008","横浜市プロジェクト","瀬谷区","瀬谷区（小学校）"
"398","be771ae2-c12e-4ad3-8c54-90b287e2cd22","原小学校","246-0023","kanagawa","横浜市瀬谷区","阿久和東四丁目33-1",NA,"35.447044","139.500155",NA,"24076af6-73fc-47dd-bc75-b489e295ac04","横浜市プロジェクト","瀬谷区","瀬谷区（小学校）"
"399","bf55c58e-c8e8-4984-bef3-2dc88613d9f4","瀬谷第二小学校","246-0037","kanagawa","横浜市瀬谷区","橋戸二丁目41-1",NA,"35.459945","139.481662",NA,"4392a562-f028-442f-8346-465002c35747","横浜市プロジェクト","瀬谷区","瀬谷区（小学校）"
"400","c686a014-4f25-4fe0-b66c-cd41e3ee1138","二つ橋小学校","246-0021","kanagawa","横浜市瀬谷区","二ツ橋町507",NA,"35.47314","139.497422",NA,"44da07ca-8b28-4dee-aa81-6ef8e9f1d6d3","横浜市プロジェクト","瀬谷区","瀬谷区（小学校）"
"401","f2843aee-f0e8-449a-938a-4192ff10d30a","相沢小学校","246-0013","kanagawa","横浜市瀬谷区","相沢二丁目56-1",NA,"35.475415","139.490555",NA,"2f1af9f5-8bb8-4282-8c3a-20c95c3d6d9b","横浜市プロジェクト","瀬谷区","瀬谷区（小学校）"
"402","f7c26bc8-59fc-4d90-98af-275cec667002","大門小学校","246-0015","kanagawa","横浜市瀬谷区","本郷三丁目47-5",NA,"35.470973","139.475006",NA,"82a36b51-5b58-4df6-97ff-eafa235f4e73","横浜市プロジェクト","瀬谷区","瀬谷区（小学校）"
"349","9ea77e2b-8260-4949-a885-456867e3db39","二つ橋高等特別支援学校","246-0021","kanagawa","横浜市瀬谷区","二ツ橋町470",NA,"35.471746","139.495796",NA,"23fe6202-eb2f-4b47-88ea-2f4a95929531","横浜市プロジェクト","瀬谷区","瀬谷区（特別支援学校）"
"501","15a28b34-d3ab-4dbf-9f42-7d5268870007","根岸中学校","235-0007","kanagawa","横浜市磯子区","西町17-13",NA,"35.414918","139.631103",NA,"de5a59a6-67fa-4afb-b991-288d167d281d","横浜市プロジェクト","磯子区","磯子区（中学校）"
"502","529e4146-e0e2-4f3e-9463-2d7595db669b","洋光台第一中学校","235-0045","kanagawa","横浜市磯子区","洋光台二丁目5-1",NA,"35.383486","139.589117",NA,"7de35df7-33f8-418d-8ac9-4503520aef91","横浜市プロジェクト","磯子区","磯子区（中学校）"
"503","963a0ef4-27b1-4e62-9a35-1cbfeccf943e","洋光台第二中学校","235-0045","kanagawa","横浜市磯子区","洋光台六丁目41-1",NA,"35.374579","139.603015",NA,"59281cf4-0ee4-4ea9-8d6a-844a168e5523","横浜市プロジェクト","磯子区","磯子区（中学校）"
"504","b7074bba-8ad2-46a1-82da-3df073ee2b7e","汐見台中学校","235-0022","kanagawa","横浜市磯子区","汐見台一丁目2-1",NA,"35.406738","139.611294",NA,"1c6ac3cf-0eac-46f1-905b-d5aac459a7d0","横浜市プロジェクト","磯子区","磯子区（中学校）"
"505","e1a8ac97-0091-49c1-8bb9-2ce1126acb25","森中学校","235-0023","kanagawa","横浜市磯子区","森五丁目22-1",NA,"35.392737","139.605489",NA,"fb86ad2b-f069-474a-accc-2439fe0aa46e","横浜市プロジェクト","磯子区","磯子区（中学校）"
"506","e42e7e4e-5565-4cc9-a572-d5440df36db7","岡村中学校","265-0021","kanagawa","横浜市磯子区","岡村一丁目14-1",NA,"35.416866","139.617189",NA,"91ef6286-183a-4ac2-8a4f-1ffdbeb34a58","横浜市プロジェクト","磯子区","磯子区（中学校）"
"507","f7837ec0-c92e-48af-9e13-9aa4f576c57e","浜中学校","235-0033","kanagawa","横浜市磯子区","杉田三丁目30-11",NA,"35.379097","139.611414",NA,"6c60de8b-3edd-4377-ac91-d17f037f48ef","横浜市プロジェクト","磯子区","磯子区（中学校）"
"271","2ae71b26-edb6-49c3-98b2-856fff6dbc82","浜小学校","235-0019","kanagawa","横浜市磯子区","磯子台23-1",NA,"35.40601","139.612748",NA,"f9a6f144-af18-4637-b189-eff9ae8a69c8","横浜市プロジェクト","磯子区","磯子区（小学校）"
"272","47bad837-cf37-4004-9072-2e7a64d3c9fa","洋光台第四小学校","235-0045","kanagawa","横浜市磯子区","洋光台六丁目6-1",NA,"35.373262","139.597445",NA,"66fed15b-d3a6-4911-98a6-5c73b032f68b","横浜市プロジェクト","磯子区","磯子区（小学校）"
"273","59103552-f0f4-4528-aadc-ca3018cc7d55","洋光台第二小学校","235-0045","kanagawa","横浜市磯子区","洋光台四丁目15-1",NA,"35.376527","139.600183",NA,"f3698c29-c61b-43a2-b2de-6aa3fc595ec4","横浜市プロジェクト","磯子区","磯子区（小学校）"
"274","62f43497-a7ec-4eab-af58-69876da1767a","山王台小学校","235-0016","kanagawa","横浜市磯子区","磯子五丁目2-1",NA,"35.407683","139.614252",NA,"f03d1a15-0cf9-48c1-adf7-44fd1caa9356","横浜市プロジェクト","磯子区","磯子区（小学校）"
"275","6afc1561-fd08-4cfb-9746-f8a20fe7e833","洋光台第一小学校","235-0045","kanagawa","横浜市磯子区","洋光台一丁目4-1",NA,"35.384069","139.596527",NA,"1f91827c-fe38-4718-8c2b-923f4dd97645","横浜市プロジェクト","磯子区","磯子区（小学校）"
"276","87618d3a-148a-420b-bb3b-33697d9f90ae","岡村小学校","235-0021","kanagawa","横浜市磯子区","岡村四丁目7-1",NA,"35.421421","139.611782",NA,"0b1eb634-0b94-4667-bf60-da60128d511f","横浜市プロジェクト","磯子区","磯子区（小学校）"
"277","87639646-15b3-4528-a67b-b9d80bc781c9","杉田小学校","235-0033","kanagawa","横浜市磯子区","杉田一丁目8-1",NA,"35.385422","139.616532",NA,"93926454-64ad-41c8-ab6f-e9c2286bf33d","横浜市プロジェクト","磯子区","磯子区（小学校）"
"278","aad344b0-74e2-4ad4-9111-f5955e415f33","さわの里小学校","235-0042","kanagawa","横浜市磯子区","上中里町548",NA,"35.369507","139.609393",NA,"a66793c3-b9ee-4088-ae11-3d93281d416f","横浜市プロジェクト","磯子区","磯子区（小学校）"
"279","ae4dbb66-a0dd-4151-b67f-74e37243e34d","屏風浦小学校","235-0023","kanagawa","横浜市磯子区","森三丁目11-1",NA,"35.391142","139.613844",NA,"234e89b3-c8e5-41df-98dc-2aba620a8718","横浜市プロジェクト","磯子区","磯子区（小学校）"
"280","be4b392f-f59a-4e2f-9195-6f9bfc18cb69","磯子小学校","235-0015","kanagawa","横浜市磯子区","久木町11-1",NA,"35.414094","139.621815",NA,"42163b57-a143-49af-9e90-c4cf9d54af54","横浜市プロジェクト","磯子区","磯子区（小学校）"
"281","c446bca1-3e69-4054-b8c3-8f9837791fc5","梅林小学校","235-0033","kanagawa","横浜市磯子区","杉田五丁目13-1",NA,"35.378171","139.61958",NA,"4fca9563-f84b-43b2-9c6d-c897a872bfbf","横浜市プロジェクト","磯子区","磯子区（小学校）"
"282","c5b269d9-a620-4eed-9aea-3a08ba395826","汐見台小学校","235-0022","kanagawa","横浜市磯子区","汐見台3-6",NA,"35.40093","139.606923",NA,"a45c034b-38bf-42e0-8fd9-0747d5c5f767","横浜市プロジェクト","磯子区","磯子区（小学校）"
"283","c77d353c-771f-4896-ba0e-25bab5b50817","洋光台第三小学校","235-0045","kanagawa","横浜市磯子区","洋光台二丁目4-1",NA,"35.382495","139.589482",NA,"20771e86-fe6a-41e3-990e-601eca7584d0","横浜市プロジェクト","磯子区","磯子区（小学校）"
"284","d17f1ed2-3f76-4a33-b16b-71aa3e9faf7b","森東小学校","235-0023","kanagawa","横浜市磯子区","森一丁目4",NA,"35.397172","139.615726",NA,"fe36457a-203b-4c83-9da5-f98fa9c88ad1","横浜市プロジェクト","磯子区","磯子区（小学校）"
"285","f4772fd7-4922-46aa-854a-aa7a4e6bdbb8","滝頭小学校","235-0011","kanagawa","横浜市磯子区","丸山二丁目25-1",NA,"35.421952","139.621063",NA,"f22313f7-699f-428d-8658-570958021160","横浜市プロジェクト","磯子区","磯子区（小学校）"
"286","f723ce20-d6ed-4d1e-ad65-086bb13ee2be","根岸小学校","235-0007","kanagawa","横浜市磯子区","西町2-46",NA,"35.417134","139.632707",NA,"5c9b67f4-1c93-425c-bdcd-138555c1a661","横浜市プロジェクト","磯子区","磯子区（小学校）"
"210","0d26611f-90fb-46ab-9b43-0b5547a689bc","横浜商業高等学校別科","235-0011","kanagawa","横浜市磯子区","丸山一丁目22-21",NA,"35.42398","139.620745",NA,"1055eb82-2a27-4829-a016-6508d1003dc2","横浜市プロジェクト","磯子区","磯子区（高等学校）"
"433","42ca1e53-f046-4c41-8804-8629aa04c630","浦島丘中学校","221-0072","kanagawa","横浜市神奈川区","白幡東町27-1",NA,"35.485778","139.640826",NA,"88737e5a-0054-43ce-a0b2-e2db37e60504","横浜市プロジェクト","神奈川区","神奈川区（中学校）"
"434","533ef662-9cf5-4415-8462-6836e4d0d503","松本中学校","221-0852","kanagawa","横浜市神奈川区","三ツ沢下町30-1",NA,"35.480387","139.615526",NA,"8e9933fe-f762-43d9-8a21-ed7119ff1b63","横浜市プロジェクト","神奈川区","神奈川区（中学校）"
"435","7232172f-26ff-434c-b881-f5d32c162095","栗田谷中学校","221-0804","kanagawa","横浜市神奈川区","栗田谷3-1",NA,"35.477437","139.624345",NA,"52057c40-baec-42a5-9c46-2ae836907406","横浜市プロジェクト","神奈川区","神奈川区（中学校）"
"436","7c026603-6d4f-4800-ae6e-cd3d8b9d543c","六角橋中学校","221-0802","kanagawa","横浜市神奈川区","六角橋五丁目33-1",NA,"35.490578","139.613664",NA,"45a65a04-2fdb-4f46-841a-11839445488a","横浜市プロジェクト","神奈川区","神奈川区（中学校）"
"437","8e4c6fe2-dfb2-4bd1-a03e-3b09b16c87cd","神奈川中学校","221-0004","kanagawa","横浜市神奈川区","西大口141",NA,"35.492302","139.638116",NA,"3eaa7c09-4322-4bf0-82a2-5073ea8fcf21","横浜市プロジェクト","神奈川区","神奈川区（中学校）"
"438","c411ee9c-d1dd-4c67-b16c-89e7527e7922","錦台中学校","221-0001","kanagawa","横浜市神奈川区","西寺尾三丁目10-1",NA,"35.496423","139.651148",NA,"66006ceb-a192-4c80-b786-66bd937ead98","横浜市プロジェクト","神奈川区","神奈川区（中学校）"
"439","e2130dd8-5d21-44cc-9194-9c4660c00010","菅田中学校","221-0864","kanagawa","横浜市神奈川区","菅田町2017",NA,"35.493699","139.589213",NA,"d8f35ed0-8ab9-4f50-ab96-be812328862d","横浜市プロジェクト","神奈川区","神奈川区（中学校）"
"128","17fbb6ed-465c-4316-a0e8-becb9189f7fd","西寺尾小学校","221-0001","kanagawa","横浜市神奈川区","西寺尾二丁目5-1",NA,"35.497183","139.645755",NA,"1af08f8c-1711-4511-8959-e4b30e1d22b9","横浜市プロジェクト","神奈川区","神奈川区（小学校）"
"129","1d9bee9c-3e15-44d6-ae92-23c2b923f783","神奈川小学校","221-0044","kanagawa","横浜市神奈川区","東神奈川二丁目35-1",NA,"35.477409","139.635725",NA,"035ebd1d-43cf-40de-8aa7-ad15c42d70b2","横浜市プロジェクト","神奈川区","神奈川区（小学校）"
"130","1f9a519a-80c9-4d3e-88d5-a3d53db8c73e","南神大寺小学校","221-0801","kanagawa","横浜市神奈川区","神大寺二丁目9-16",NA,"35.485312","139.61242",NA,"f69d4502-873e-41b8-a78a-f3e039979d12","横浜市プロジェクト","神奈川区","神奈川区（小学校）"
"131","227c77c0-0e07-47f7-85d5-8043a79aaf8a","中丸小学校","221-0801","kanagawa","横浜市神奈川区","神大寺三丁目17-1",NA,"35.481961","139.602413",NA,"aac3801b-43ea-43e6-913c-94d0e5d141a0","横浜市プロジェクト","神奈川区","神奈川区（小学校）"
"132","45774b9d-6558-403f-aded-297a6190910d","三ツ沢小学校","221-0851","kanagawa","横浜市神奈川区","三ツ沢中町4-17",NA,"35.475789","139.608198",NA,"939e6a6a-f4b9-41f0-bcb4-15ac6b90c979","横浜市プロジェクト","神奈川区","神奈川区（小学校）"
"133","54af9ed2-1bbd-4f18-bbfe-1ea34f31161d","羽沢小学校","221-0863","kanagawa","横浜市神奈川区","羽沢町935",NA,"35.488197","139.586934",NA,"3717a5c4-7400-420e-89e6-918b05c76a69","横浜市プロジェクト","神奈川区","神奈川区（小学校）"
"134","55f64fea-f1cf-4d20-830d-f34895218ae7","青木小学校","221-0832","kanagawa","横浜市神奈川区","桐畑17",NA,"35.473704","139.627039",NA,"be87e050-2a82-40a8-9b5c-c8c3a64333de","横浜市プロジェクト","神奈川区","神奈川区（小学校）"
"135","5b53a4a4-53d7-4cc3-899b-358196a28271","白幡小学校","221-0075","kanagawa","横浜市神奈川区","白幡上町11-1",NA,"35.491483","139.632637",NA,"91a2c831-b8f7-437e-9ddb-e21d75aea07e","横浜市プロジェクト","神奈川区","神奈川区（小学校）"
"136","624ada58-1544-40fc-982c-6b178d1d784a","菅田の丘小学校","221-0864","kanagawa","横浜市神奈川区","菅田町674",NA,"35.496216","139.578195",NA,"d172faa3-364e-44ee-a466-cea68e9e473f","横浜市プロジェクト","神奈川区","神奈川区（小学校）"
"137","68d569c9-9591-45fb-9260-da1cfb266e0b","子安小学校","221-0013","kanagawa","横浜市神奈川区","新子安一丁目24-1",NA,"35.488371","139.65313",NA,"2aadaa7b-1c62-483e-afc8-c4e3ab37bd39","横浜市プロジェクト","神奈川区","神奈川区（小学校）"
"138","6ab981cf-8359-4532-a6d2-6e9d14c18865","斎藤分小学校","221-0811","kanagawa","横浜市神奈川区","斎藤分町34-1",NA,"35.48204","139.622966",NA,"65149202-5a91-4993-ab15-ba08931f74bd","横浜市プロジェクト","神奈川区","神奈川区（小学校）"
"139","6ac68090-73c0-4191-89cf-65a14b56d183","二谷小学校","221-0812","kanagawa","横浜市神奈川区","平川町11-1",NA,"35.480692","139.628434",NA,"b54ca2e3-a86a-4d24-8319-23bc4bfd2041","横浜市プロジェクト","神奈川区","神奈川区（小学校）"
"140","6c1d3803-edd8-499c-9140-ef06daa31020","浦島小学校","221-0062","kanagawa","横浜市神奈川区","浦島丘16",NA,"35.483878","139.636721",NA,"7b3abbdb-63c9-47e6-8a2f-2d4fb0a13d0f","横浜市プロジェクト","神奈川区","神奈川区（小学校）"
"141","77828a78-e452-4f29-8f43-23658c8211c3","大口台小学校","221-0003","kanagawa","横浜市神奈川区","大口仲町460",NA,"35.495824","139.63821",NA,"82b81a98-49bd-40c1-80db-ea63a45d17ef","横浜市プロジェクト","神奈川区","神奈川区（小学校）"
"142","a627c087-0bb4-4126-9bf7-d2e5518569c3","西寺尾第二小学校","221-0001","kanagawa","横浜市神奈川区","西寺尾二丁目15-1",NA,"35.499477","139.646614",NA,"b28c61bf-eef1-4728-ba3c-47ecc1ed4816","横浜市プロジェクト","神奈川区","神奈川区（小学校）"
"143","d364c710-042a-44e7-9ec8-3637ede5bbc3","神橋小学校","221-0802","kanagawa","横浜市神奈川区","六角橋二丁目34-19",NA,"35.489876","139.621572",NA,"9952ca3a-9473-471e-8ae5-d746d5e7bd60","横浜市プロジェクト","神奈川区","神奈川区（小学校）"
"144","f5ffd565-114d-42b0-b0a9-fe0f3cbc4cf8","神大寺小学校","221-0801","kanagawa","横浜市神奈川区","神大寺三丁目34-1",NA,"35.487062","139.608626",NA,"821c1426-1548-45f1-bdac-2bbe8a210620","横浜市プロジェクト","神奈川区","神奈川区（小学校）"
"145","fc299e1b-a0e9-4b1f-a005-a399c320e426","幸ケ谷小学校","221-0051","kanagawa","横浜市神奈川区","幸ケ谷1-1",NA,"35.471531","139.631103",NA,"8eea3546-8441-4b16-9330-c75ed0ed059e","横浜市プロジェクト","神奈川区","神奈川区（小学校）"
"350","e543f767-d6e1-441a-bf77-203ca5f497b7","盲特別支援学校","221-0005","kanagawa","横浜市神奈川区","松見町1-26",NA,"35.494477","139.642101",NA,"5200a97f-78ae-4dfc-81d7-60409a48ddc4","横浜市プロジェクト","神奈川区","神奈川区（特別支援学校）"
"58","03740de4-eafb-47bf-b4b4-fbd243d15b34","霧が丘学園　中学部","226-0016","kanagawa","横浜市緑区","霧が丘四丁目4",NA,"35.511158","139.507366",NA,"3fb57c1c-dab1-48ef-87b0-502b6aa6dfd3","横浜市プロジェクト","緑区","緑区（中学校）"
"59","2a94419e-67a5-4a06-ae23-e12cc46467a6","田奈中学校","226-0027","kanagawa","横浜市緑区","長津田二丁目24-1",NA,"35.534758","139.498113",NA,"52a45ae9-2f01-49f5-bede-9375844fa876","横浜市プロジェクト","緑区","緑区（中学校）"
"60","330b0983-d334-488c-a815-c37f98b4e44c","中山中学校","226-0013","kanagawa","横浜市緑区","寺山町653-21",NA,"35.503964","139.539693",NA,"c4587447-d42d-4d1e-a33b-d83f7b7cf7a7","横浜市プロジェクト","緑区","緑区（中学校）"
"61","8fe4a424-f460-4e7e-a141-d159028a691c","鴨居中学校","226-0003","kanagawa","横浜市緑区","鴨居五丁目12-35",NA,"35.508411","139.561329",NA,"117483fa-cb8c-4cba-b94d-12a1e108ee35","横浜市プロジェクト","緑区","緑区（中学校）"
"62","e43c6575-58ef-4bce-bc15-33d0fadec628","東鴨居中学校","226-0003","kanagawa","横浜市緑区","鴨居三丁目39-1",NA,"35.505178","139.570801",NA,"70090af5-e77f-4927-a265-ccab70b7412b","横浜市プロジェクト","緑区","緑区（中学校）"
"63","ffce546c-acd1-4609-b965-47e96649597e","十日市場中学校","226-0025","kanagawa","横浜市緑区","十日市場町1501番地42",NA,"35.5225","139.512661",NA,"14dd4254-76e0-472d-95c6-dc7fcc811080","横浜市プロジェクト","緑区","緑区（中学校）"
"170","05eaf689-08db-45f4-ac75-7724c3ba1646","長津田第二小学校","226-0026","kanagawa","横浜市緑区","長津田町2469-3",NA,"35.534682","139.488379",NA,"87c83f8f-e44a-43e9-b8eb-a8bd61a1a5d4","横浜市プロジェクト","緑区","緑区（小学校）"
"171","06e53ce9-19a6-4ae4-b010-1e8deef302d5","山下みどり台小学校","226-0021","kanagawa","横浜市緑区","北八朔町2031-3",NA,"35.531853","139.53317",NA,"1e0f238b-494d-4534-920d-e63c4de6f737","横浜市プロジェクト","緑区","緑区（小学校）"
"172","24c2737a-fe3f-44fa-bb29-929e5b6e95ba","鴨居小学校","226-0003","kanagawa","横浜市緑区","鴨居四丁目7-15",NA,"35.509139","139.56613",NA,"c4ebef5a-88b4-48a6-b4bd-a20d37d3e8fc","横浜市プロジェクト","緑区","緑区（小学校）"
"173","26c9391a-b50a-4319-9aad-b84ce7343403","森の台小学校","226-0029","kanagawa","横浜市緑区","森の台13-1",NA,"35.508655","139.535398",NA,"911f5cf0-0183-4d43-9c20-c0dce9067e5e","横浜市プロジェクト","緑区","緑区（小学校）"
"174","2ede9485-7e20-4f10-aed7-2f94768bfe96","三保小学校","226-0015","kanagawa","横浜市緑区","三保町1867",NA,"35.516001","139.526533",NA,"74226d45-d0f0-494b-89c8-87118ca8e178","横浜市プロジェクト","緑区","緑区（小学校）"
"175","3003ba5e-b395-4aab-9fd3-da041b2b8035","いぶき野小学校","226-0028","kanagawa","横浜市緑区","いぶき野14-1",NA,"35.52582","139.501795",NA,"1ca354a9-ec36-4e87-9db6-14306ca6febc","横浜市プロジェクト","緑区","緑区（小学校）"
"176","3281a66f-ec15-4601-8c42-2f205be19244","新治小学校","226-0017","kanagawa","横浜市緑区","新治町768",NA,"35.517597","139.519389",NA,"3a91fbbe-514c-4506-bca0-3eeb1eaefd81","横浜市プロジェクト","緑区","緑区（小学校）"
"177","5458fefa-e5f9-4e7e-b97c-4cc98b434347","上山小学校","226-0012","kanagawa","横浜市緑区","上山二丁目５−１",NA,"35.506462","139.546671",NA,"980288a3-faaa-4459-af80-4d949ecaef17","横浜市プロジェクト","緑区","緑区（小学校）"
"178","8923f314-b44e-4bf6-bde4-b9c657360a97","緑小学校","226-0003","kanagawa","横浜市緑区","鴨居五丁目19-1",NA,"35.505305","139.560777",NA,"6c012532-d881-41d6-8a84-6e22c4e57421","横浜市プロジェクト","緑区","緑区（小学校）"
"179","9c72c109-0378-458f-a674-5b85f1006edc","十日市場小学校","226-0025","kanagawa","横浜市緑区","十日市場町1392-1",NA,"35.520505","139.514274",NA,"35ec3917-1025-4f37-8de7-feda74b5b894","横浜市プロジェクト","緑区","緑区（小学校）"
"180","c14f2feb-f3e8-4434-b5c4-f7d88bf8ea23","中山小学校","226-0011","kanagawa","横浜市緑区","中山町四丁目16-1",NA,"35.510848","139.548437",NA,"aafb9007-3291-46a6-beda-5091b7d2cccb","横浜市プロジェクト","緑区","緑区（小学校）"
"181","c4cf25cb-b4a3-4371-83e1-0837096e95e1","山下小学校","226-0021","kanagawa","横浜市緑区","北八朔町1865-3",NA,"35.525253","139.538323",NA,"4fd9f12f-f8a1-4280-8c12-1d8bf6ca2a94","横浜市プロジェクト","緑区","緑区（小学校）"
"182","d31ac49d-daa7-4848-adff-54f6985b2138","長津田小学校","226-0026","kanagawa","横浜市緑区","長津田町2330",NA,"35.5302","139.491012",NA,"fbfcce9a-45bf-483a-9224-5f774c468619","横浜市プロジェクト","緑区","緑区（小学校）"
"183","dd1eb320-b4d6-48f0-8fc8-e597790848a8","竹山小学校","226-0005","kanagawa","横浜市緑区","竹山三丁目1-16",NA,"35.495922","139.561518",NA,"fb074e1f-176f-46ae-909c-d29f4dfa7591","横浜市プロジェクト","緑区","緑区（小学校）"
"184","e8311fd9-b9bc-4ef8-8190-27f51b06f18b","霧が丘学園　小学部","226-0016","kanagawa","横浜市緑区","霧が丘四丁目3",NA,"35.511943","139.507202",NA,"2f94e81f-750f-464e-b55b-f0b68869c561","横浜市プロジェクト","緑区","緑区（小学校）"
"185","f98c37e2-3b60-4cbb-a1dd-9a47fc99e4df","東本郷小学校","226-0002","kanagawa","横浜市緑区","東本郷五丁目40-1",NA,"35.505104","139.58131",NA,"2476a4e6-8111-47d6-a712-7ae0d937e2e1","横浜市プロジェクト","緑区","緑区（小学校）"
"287","39cff09c-ac3a-4063-95c4-8613f42596d4","岡野中学校","220-0073","kanagawa","横浜市西区","岡野二丁目14-1",NA,"35.462265","139.611733",NA,"e3297d1a-8d42-48f7-a6bb-f352b08d4a02","横浜市プロジェクト","西区","西区（中学校）"
"288","62e78a3a-8fbe-4a46-9fdf-602e38a07906","老松中学校","220-0032","kanagawa","横浜市西区","老松町27",NA,"35.447976","139.624768",NA,"962e6b0d-bdac-4507-bad0-63da2814dbee","横浜市プロジェクト","西区","西区（中学校）"
"289","ca2fa6f3-88d3-4f15-999e-8592eba57b8b","西中学校","220-0046","kanagawa","横浜市西区","西戸部町3-286",NA,"35.452015","139.618554",NA,"f11fda6e-c798-4afe-9569-7b15b11e7aac","横浜市プロジェクト","西区","西区（中学校）"
"290","df290d19-01dd-4c4d-934f-a9ca0ee23b26","軽井沢中学校","220-0001","kanagawa","横浜市西区","北軽井沢24",NA,"35.468871","139.60958",NA,"0f0456fd-71e6-4bd9-8272-832fd103dac1","横浜市プロジェクト","西区","西区（中学校）"
"119","69933d41-ec66-42c5-be4c-2907c8181e4f","戸部小学校","220-0045","kanagawa","横浜市西区","伊勢町2-115",NA,"35.452491","139.621626",NA,"c6cba06b-39db-4865-ba5c-d17150af1573","横浜市プロジェクト","西区","西区（小学校）"
"120","69ed1bab-9384-4487-9852-652d081cd3ed","平沼小学校","220-0023","kanagawa","横浜市西区","平沼二丁目11-36",NA,"35.457463","139.615845",NA,"7a896f62-897a-4d5d-98e2-5718e7cbad3e","横浜市プロジェクト","西区","西区（小学校）"
"121","7524bc3d-abd5-47a6-9ec8-5029ddafc489","浅間台小学校","220-0072","kanagawa","横浜市西区","浅間町3-237",NA,"35.461511","139.605728",NA,"b67f012b-0277-4bcb-a2a2-efd2371ca47f","横浜市プロジェクト","西区","西区（小学校）"
"122","82b96002-3bce-4cb3-a185-ce2ea6ef86ed","西前小学校","220-0051","kanagawa","横浜市西区","中央二丁目27-7",NA,"35.454132","139.615755",NA,"085fabb7-b0b6-4859-9ec2-febfdf3acd70","横浜市プロジェクト","西区","西区（小学校）"
"123","89e14a3b-8cf6-4f98-a7cc-f78d81dcc332","宮谷小学校","220-0006","kanagawa","横浜市西区","宮ケ谷6-7",NA,"35.466446","139.608245",NA,"70ca1404-7fae-4c3a-a54d-a4293f7e45e4","横浜市プロジェクト","西区","西区（小学校）"
"124","dfec125b-2de5-4c27-a1bc-833f95446055","稲荷台小学校","220-0053","kanagawa","横浜市西区","藤棚町2-220",NA,"35.449099","139.612459",NA,"d2557b09-7b70-4eaf-aee1-88574e4100ee","横浜市プロジェクト","西区","西区（小学校）"
"125","e863bffe-3adb-43d7-b06a-8b6703167e55","みなとみらい本町小学校","220-0011","kanagawa","横浜市西区","高島一丁目2-3",NA,"35.461514","139.624658",NA,"be39f83a-bd80-4892-817a-3977bfbec892","横浜市プロジェクト","西区","西区（小学校）"
"126","edb8b23a-5ec0-4c39-8a14-c6bb8c772ad6","一本松小学校","220-0046","kanagawa","横浜市西区","西戸部町1-115",NA,"35.446932","139.618952",NA,"2a3acb6c-a531-4044-ad20-5edd14ea820c","横浜市プロジェクト","西区","西区（小学校）"
"127","fe8e328e-16fc-4afa-b267-0afb1a84c4c8","東小学校","220-0033","kanagawa","横浜市西区","東ケ丘59",NA,"35.443364","139.623894",NA,"994ebf9e-4d33-4a7e-b5b8-5f6b0c066c5c","横浜市プロジェクト","西区","西区（小学校）"
"448","377811a3-f85a-4123-acf4-174471f0dfee","荏田南中学校","224-0007","kanagawa","横浜市都筑区","荏田南二丁目5-1",NA,"35.543741","139.556245",NA,"c10fda98-60c1-43fb-969f-e933cb995d86","横浜市プロジェクト","都筑区","都筑区（中学校）"
"449","3e766130-52f8-4695-80f3-59be2f7044d3","東山田中学校","224-0023","kanagawa","横浜市都筑区","東山田二丁目9-1",NA,"35.561388","139.60089",NA,"dbd6a86d-e609-4064-a91b-be180a0d4348","横浜市プロジェクト","都筑区","都筑区（中学校）"
"450","52fcd006-a73a-426a-922e-b3456b0680f7","川和中学校","224-0051","kanagawa","横浜市都筑区","富士見が丘21-1",NA,"35.530787","139.557201",NA,"188bd3db-fd35-4137-a515-99d550bc8f0d","横浜市プロジェクト","都筑区","都筑区（中学校）"
"451","72cc70a6-c8ec-407c-bc00-675524898f43","都田中学校","224-0053","kanagawa","横浜市都筑区","池辺町2818",NA,"35.523128","139.570189",NA,"70274538-65b9-4086-b638-c6a1cbebe182","横浜市プロジェクト","都筑区","都筑区（中学校）"
"452","79f5ae68-eabc-4c83-b125-c2840be5c4f0","茅ケ崎中学校","224-0037","kanagawa","横浜市都筑区","茅ケ崎南一丁目10-1",NA,"35.540459","139.581559",NA,"c0f7fc52-3b23-4c42-ba58-5f8c046ad490","横浜市プロジェクト","都筑区","都筑区（中学校）"
"453","c448480a-39fe-4d79-89ad-83aa3d8112a4","中川西中学校","224-0001","kanagawa","横浜市都筑区","中川二丁目1-1",NA,"35.56265","139.564986",NA,"6788aa42-cccf-4380-8d5a-63827c3c178c","横浜市プロジェクト","都筑区","都筑区（中学校）"
"454","e32dd551-2cb9-45ca-a3eb-af2026207285","中川中学校","224-0027","kanagawa","横浜市都筑区","大棚町240",NA,"35.551203","139.592993",NA,"30f42109-2929-445c-a26e-f6367edd83d3","横浜市プロジェクト","都筑区","都筑区（中学校）"
"455","e9161af3-1e24-4802-af7c-eefb82657ec7","早渕中学校","224-0025","kanagawa","横浜市都筑区","早渕二丁目4−1",NA,"35.545595","139.597097",NA,"13e18071-1c9c-40bc-9890-5c00301980fa","横浜市プロジェクト","都筑区","都筑区（中学校）"
"90","0188a4ec-4cd5-4152-a4d8-688450181a10","荏田南小学校","224-0007","kanagawa","横浜市都筑区","荏田南二丁目5-2",NA,"35.544502","139.556444",NA,"0ca08fbd-d506-4e27-858c-cfb40453b96b","横浜市プロジェクト","都筑区","都筑区（小学校）"
"91","06a2bb5c-c820-4113-a633-6dffb448f966","つづきの丘小学校","224-0006","kanagawa","横浜市都筑区","荏田東一丁目22-1",NA,"35.545742","139.565478",NA,"44f96322-6d23-4c38-a056-987dfd5f33ae","横浜市プロジェクト","都筑区","都筑区（小学校）"
"92","09b7a494-b656-475e-b6cd-39ba4a56f489","北山田小学校","224-0021","kanagawa","横浜市都筑区","北山田五丁目14-1",NA,"35.565226","139.585689",NA,"de02a3fa-9e35-4ac9-995f-60a8eee5c272","横浜市プロジェクト","都筑区","都筑区（小学校）"
"93","0d226184-9328-4a80-8df3-a5c2bd98b027","南山田小学校","224-0029","kanagawa","横浜市都筑区","南山田二丁目27-1",NA,"35.557726","139.588835",NA,"3e6171fc-2f3f-43a6-b97e-e712edf3e97e","横浜市プロジェクト","都筑区","都筑区（小学校）"
"94","17c9b171-7b09-4618-b406-090683a634ef","都筑小学校","224-0001","kanagawa","横浜市都筑区","中川六丁目2-1",NA,"35.556534","139.57414",NA,"ea7cdb49-cff7-4256-9dec-76a73a5b002e","横浜市プロジェクト","都筑区","都筑区（小学校）"
"95","183c49a6-e55b-427d-a10d-0e7655de92aa","荏田東第一小学校","224-0006","kanagawa","横浜市都筑区","荏田東三丁目5-1",NA,"35.546995","139.562404",NA,"39b294b6-19cf-4dfb-bb01-567b69f12b78","横浜市プロジェクト","都筑区","都筑区（小学校）"
"96","18bbddfc-46d2-41b4-9318-cef81c70179f","都田西小学校","224-0053","kanagawa","横浜市都筑区","池辺町2452-1",NA,"35.521748","139.563767",NA,"8ec46007-58e7-4146-909d-a261fe9b27d7","横浜市プロジェクト","都筑区","都筑区（小学校）"
"97","2204f286-23be-4a17-8231-1f2ad0f5d7cc","中川西小学校","224-0001","kanagawa","横浜市都筑区","中川一丁目3-1",NA,"35.560126","139.56914",NA,"d2c7d64a-7f7f-4e75-8948-e2c4bb942a56","横浜市プロジェクト","都筑区","都筑区（小学校）"
"98","29796c33-6f69-4cb3-8a76-b21cab7e07fc","荏田小学校","224-0008","kanagawa","横浜市都筑区","荏田南町694",NA,"35.557651","139.563433",NA,"4a2182b8-1095-4dc3-ad02-8ca47da8cc48","横浜市プロジェクト","都筑区","都筑区（小学校）"
"99","3da417d1-47e9-40f6-8375-30e32aabd452","東山田小学校","224-0023","kanagawa","横浜市都筑区","東山田一丁目4-1",NA,"35.564457","139.59657",NA,"6407a2eb-f45b-4941-9543-04f7d8000b3e","横浜市プロジェクト","都筑区","都筑区（小学校）"
"100","42788e5e-c92b-4b7f-b8a9-0f96ffe79a07","中川小学校","224-0014","kanagawa","横浜市都筑区","牛久保東二丁目21-1",NA,"35.550435","139.587451",NA,"f8dbc139-b885-4af0-9088-9d37b5b30b82","横浜市プロジェクト","都筑区","都筑区（小学校）"
"101","4d157154-71c8-45e9-8fef-6a232a0356af","川和東小学校","224-0051","kanagawa","横浜市都筑区","富士見が丘21-2",NA,"35.53162","139.557725",NA,"9c15e9cb-c117-42cc-9894-43eebf6fff79","横浜市プロジェクト","都筑区","都筑区（小学校）"
"102","4f0812bd-cda7-4be0-9851-12bd4fb5cdbe","茅ケ崎台小学校","224-0063","kanagawa","横浜市都筑区","長坂13-1",NA,"35.537824","139.569568",NA,"bc7a00b1-af0f-42b4-8a5a-9f3c7b1cbf56","横浜市プロジェクト","都筑区","都筑区（小学校）"
"103","56cfc2e0-6e43-42bd-92a0-68b27778d869","都田小学校","224-0053","kanagawa","横浜市都筑区","池辺町2831",NA,"35.522449","139.571488",NA,"51304f0e-fae4-4941-90a1-bba6724ea2a4","横浜市プロジェクト","都筑区","都筑区（小学校）"
"104","92599fcc-51da-49b4-b2c7-df07daa0cd57","川和小学校","224-0057","kanagawa","横浜市都筑区","川和町1463",NA,"35.529563","139.54785",NA,"69e2affb-1056-41ed-b3e3-e384e179ebd6","横浜市プロジェクト","都筑区","都筑区（小学校）"
"105","9cdb8543-0947-4121-a11c-ef3de386ff1f","折本小学校","224-0043","kanagawa","横浜市都筑区","折本町1321",NA,"35.528555","139.595225",NA,"09f3b398-5645-478e-b411-fcffff2bbabb","横浜市プロジェクト","都筑区","都筑区（小学校）"
"106","a4475cbf-f640-476b-b35e-d5eb0c70934d","牛久保小学校","244-0012","kanagawa","横浜市都筑区","牛久保一丁目23-1",NA,"35.559249","139.582425",NA,"7653cb15-8989-4c45-bc32-e70be2089b1b","横浜市プロジェクト","都筑区","都筑区（小学校）"
"107","ca0fd439-65bd-4cf7-ae98-f174bbfbd762","茅ケ崎東小学校","224-0033","kanagawa","横浜市都筑区","茅ケ崎東二丁目11-1",NA,"35.542733","139.581708",NA,"0f562e04-4a6b-4549-b240-4b3410c90405","横浜市プロジェクト","都筑区","都筑区（小学校）"
"108","d4db2f68-c6f7-4c34-9892-4be3c769b397","すみれが丘小学校","224-0013","kanagawa","横浜市都筑区","すみれが丘34",NA,"35.56619","139.580006",NA,"c58917d3-15f6-46db-b8f9-602ed7af2e07","横浜市プロジェクト","都筑区","都筑区（小学校）"
"109","de4da98d-e59c-4dc8-ae2f-d84bb0de2ead","勝田小学校","224-0034","kanagawa","横浜市都筑区","勝田町266",NA,"35.541512","139.590378",NA,"7cfdbb73-e24a-4246-b626-d9a1c6c3144a","横浜市プロジェクト","都筑区","都筑区（小学校）"
"110","e380b5fe-c783-4d8a-b629-e5f529687331","山田小学校","224-0023","kanagawa","横浜市都筑区","東山田三丁目29-1",NA,"35.559857","139.603568",NA,"0a091381-e185-47e1-9abe-77698241a54b","横浜市プロジェクト","都筑区","都筑区（小学校）"
"111","e5004e30-8fdd-44d4-8879-939c1abd25c8","茅ケ崎小学校","224-0037","kanagawa","横浜市都筑区","茅ケ崎南一丁目11-1",NA,"35.540314","139.580746",NA,"fbaabf61-c1d1-4e51-a070-2f5c331f40e0","横浜市プロジェクト","都筑区","都筑区（小学校）"
"423","22ee30d9-e67a-4b7b-9a02-37cf9cbdb602","大道中学校","236-0035","kanagawa","横浜市金沢区","大道一丁目85-1",NA,"35.331059","139.601104",NA,"ebe6b2e9-5ec3-4c84-9ff2-e19332eb8cfd","横浜市プロジェクト","金沢区","金沢区（中学校）"
"424","34484778-f85c-4385-9948-8ffcdc71c021","六浦中学校","236-0031","kanagawa","横浜市金沢区","六浦一丁目24-4",NA,"35.324533","139.618633",NA,"e372494b-764f-442a-b6b2-38588397cdcf","横浜市プロジェクト","金沢区","金沢区（中学校）"
"425","42ec1dfd-2c92-4965-863f-36245e090066","西柴中学校","236-0017","kanagawa","横浜市金沢区","西柴一丁目23-1",NA,"35.352493","139.629499",NA,"55a93d23-4086-4304-9ab2-9137af6c9235","横浜市プロジェクト","金沢区","金沢区（中学校）"
"426","62c9c1af-8232-4c32-97d0-e355de44c05c","並木中学校","236-0005","kanagawa","横浜市金沢区","並木三丁目4-1",NA,"35.359215","139.640935",NA,"d1b07d3c-7580-4d96-9a3a-124bcdf58eb5","横浜市プロジェクト","金沢区","金沢区（中学校）"
"427","8ab2af0f-4a82-4c2e-8bbe-a49020964d04","富岡東中学校","236-0005","kanagawa","横浜市金沢区","並木一丁目6-1",NA,"35.37326","139.637887",NA,"9a4394df-66b1-4a74-a74b-1a2814c8ce9d","横浜市プロジェクト","金沢区","金沢区（中学校）"
"428","95cb7b0d-b921-4ab1-b727-da8acea694ad","釜利谷中学校","236-0045","kanagawa","横浜市金沢区","釜利谷南三丁目5-1",NA,"35.337249","139.604188",NA,"4546b96c-b687-4edc-a495-543aa88924fd","横浜市プロジェクト","金沢区","金沢区（中学校）"
"429","968f9de5-750c-4260-bb13-59382d1528e4","金沢中学校","236-0042","kanagawa","横浜市金沢区","釜利谷東一丁目1-1",NA,"35.341408","139.617075",NA,"5fae1df5-cb5b-4820-b361-c4fadd0c5417","横浜市プロジェクト","金沢区","金沢区（中学校）"
"430","b37e6f2f-f0da-4d53-b278-3fd53335a3c7","小田中学校","236-0052","kanagawa","横浜市金沢区","富岡西一丁目73-1",NA,"35.371368","139.619311",NA,"b40d3041-e501-4196-af6a-d1a50a899a76","横浜市プロジェクト","金沢区","金沢区（中学校）"
"431","ce013714-d0f4-4baf-accf-ec139983e29f","西金沢学園　中学部","236-0046","kanagawa","横浜市金沢区","釜利谷西四丁目19-1",NA,"35.344217","139.593861",NA,"015ca006-cb6a-4565-88a0-a7e46a3be000","横浜市プロジェクト","金沢区","金沢区（中学校）"
"432","e2f690c8-0a51-41f1-8037-92d58a004721","富岡中学校","236-0052","kanagawa","横浜市金沢区","富岡西五丁目46-1",NA,"35.36144","139.613943",NA,"5e8f52a0-7677-40cb-912e-45166f9548f6","横浜市プロジェクト","金沢区","金沢区（中学校）"
"256","b7c8b86e-c52b-476f-9d94-f01483aa7c33","西富岡小学校","236-0052","kanagawa","横浜市金沢区","横浜市金沢区富岡西五丁目49-1",NA,"35.36225","139.614675",NA,"89142dd9-f8a4-4542-9d0d-0ae0be0c19d5","横浜市プロジェクト","金沢区","金沢区（小学校）"
"257","b9ad6a9b-f9a2-4788-9b7c-9b746b8650d8","並木第四小学校","236-0005","kanagawa","横浜市金沢区","横浜市金沢区並木三丁目10-1",NA,"35.355494","139.640477",NA,"a875ab2e-a371-4c40-87db-3210a955b3cd","横浜市プロジェクト","金沢区","金沢区（小学校）"
"258","df42d472-8c99-4529-a6b4-fbf45dc2b09a","能見台南小学校","236-0057","kanagawa","横浜市金沢区","横浜市金沢区能見台六丁目3-1",NA,"35.353188","139.615845",NA,"29adcc65-8c2a-41c5-9824-75fd153413fd","横浜市プロジェクト","金沢区","金沢区（小学校）"
"259","e4de7521-e75a-4c50-91de-981ad54b0116","釜利谷小学校","236-0042","kanagawa","横浜市金沢区","横浜市金沢区釜利谷東六丁目37-1",NA,"35.343623","139.607959",NA,"7f7b654e-ce44-4d11-85db-aa430cb136b7","横浜市プロジェクト","金沢区","金沢区（小学校）"
"260","ebe3b774-24ae-4bcb-95f6-47235f9562bf","八景小学校","236-0021","kanagawa","横浜市金沢区","横浜市金沢区泥亀一丁目21-2",NA,"35.338915","139.622657",NA,"c8b69cca-61b2-4f23-8b7b-269bdc244edd","横浜市プロジェクト","金沢区","金沢区（小学校）"
"261","fd046560-8fca-4f64-a3ad-027664a58f8e","富岡小学校","236-0052","kanagawa","横浜市金沢区","横浜市金沢区富岡西七丁目13-1",NA,"35.366654","139.625814",NA,"9c95d057-2a43-46eb-8f76-91cfb35a1f72","横浜市プロジェクト","金沢区","金沢区（小学校）"
"240","10a52ef1-a8b9-4bb3-b8a6-8705801f1114","六浦小学校","236-0031","kanagawa","横浜市金沢区","横浜市金沢区六浦三丁目11-1",NA,"35.330059","139.612658",NA,"87c99a4f-1c51-4d35-8706-a9809933c26c","横浜市プロジェクト","金沢区","金沢区（小学校）"
"241","137c0d12-bd89-4ce5-b973-92c093cefdaf","瀬ケ崎小学校","236-0037","kanagawa","横浜市金沢区","横浜市金沢区六浦東三丁目２−１",NA,"35.318683","139.619829",NA,"020b4686-10db-4bde-9278-eb7b9c1c9235","横浜市プロジェクト","金沢区","金沢区（小学校）"
"242","15512d2e-95e0-42a2-b1f2-e910ba821051","文庫小学校","236-0014","kanagawa","横浜市金沢区","横浜市金沢区寺前二丁目21-7",NA,"35.339399","139.630655",NA,"bbd71caa-2779-4d6b-a3f4-70d91e1b42ba","横浜市プロジェクト","金沢区","金沢区（小学校）"
"243","2299dc47-bc64-449e-bb32-09a2d0df6b17","小田小学校","236-0052","kanagawa","横浜市金沢区","横浜市金沢区富岡西一丁目69-1",NA,"35.372057","139.620914",NA,"ea81f48c-0098-4efc-a843-3b0cb9659851","横浜市プロジェクト","金沢区","金沢区（小学校）"
"244","3738bdb6-08c7-4155-825e-437eeb3da9d8","朝比奈小学校","236-0033","kanagawa","横浜市金沢区","横浜市金沢区東朝比奈二丁目53-1",NA,"35.322714","139.595086",NA,"4ee124ff-5055-4246-b046-3090b8044a2d","横浜市プロジェクト","金沢区","金沢区（小学校）"
"245","3c9149e2-0dd2-49fc-9f23-e592dcac0011","釜利谷南小学校","236-0045","kanagawa","横浜市金沢区","横浜市金沢区釜利谷南四丁目12-1",NA,"35.338888","139.605826",NA,"2af424e5-c8fc-4536-b894-cf34bfc973cb","横浜市プロジェクト","金沢区","金沢区（小学校）"
"246","420a6b3f-ffbf-4887-b210-6dced0e1480a","西柴小学校","236-0017","kanagawa","横浜市金沢区","横浜市金沢区西柴四丁目23-1",NA,"35.347193","139.633364",NA,"0a5b3213-1433-4120-bfdb-95ffcfc1c679","横浜市プロジェクト","金沢区","金沢区（小学校）"
"247","508534d0-91b1-48b9-9a3f-8fe8c8d5e010","大道小学校","236-0035","kanagawa","横浜市金沢区","横浜市金沢区大道二丁目3-1",NA,"35.326972","139.6099",NA,"01b87e68-bb6e-4750-aa09-6108462d56a7","横浜市プロジェクト","金沢区","金沢区（小学校）"
"248","8384f596-8f5b-4060-9df5-087cb2834176","並木第一小学校","236-0005","kanagawa","横浜市金沢区","横浜市金沢区並木一丁目7-1",NA,"35.372518","139.638676",NA,"f9227d04-0cb1-4c9e-ac8e-15b2fe849fa4","横浜市プロジェクト","金沢区","金沢区（小学校）"
"249","8fb032e9-a8fe-4806-a4e6-6652e95d6c4b","六浦南小学校","236-0038","kanagawa","横浜市金沢区","横浜市金沢区六浦南三丁目22-1",NA,"35.316064","139.610926",NA,"f34fef7b-815c-4019-847f-0b6a89a4e7ff","横浜市プロジェクト","金沢区","金沢区（小学校）"
"250","9781f386-2fe1-4e83-aae4-7d54821a025a","高舟台小学校","236-0044","kanagawa","横浜市金沢区","横浜市金沢区高舟台一丁目35-1",NA,"35.333707","139.607799",NA,"92432c72-066e-41dd-8e0e-52a3c958d3f6","横浜市プロジェクト","金沢区","金沢区（小学校）"
"251","a63cab61-47c8-4a41-be56-63ed8213309e","釜利谷東小学校","236-0042","kanagawa","横浜市金沢区","横浜市金沢区釜利谷東二丁目12-1",NA,"35.344075","139.61699",NA,"04488b1e-7ea1-4c77-a369-c8cf290b8fe0","横浜市プロジェクト","金沢区","金沢区（小学校）"
"252","a7b0a516-4c09-4635-ad66-ed0761928958","金沢小学校","236-0022","kanagawa","横浜市金沢区","横浜市金沢区町屋町26-26",NA,"35.335933","139.62932",NA,"ffc8bd6b-a9cf-4cd8-ad36-69fb05dc3655","横浜市プロジェクト","金沢区","金沢区（小学校）"
"253","a89b5bd4-31ab-4554-85fa-931c927ad93f","並木中央小学校","236-0005","kanagawa","横浜市金沢区","横浜市金沢区並木一丁目25-1",NA,"35.367306","139.640836",NA,"07732bb7-5b8b-466a-9851-b82c4837fa86","横浜市プロジェクト","金沢区","金沢区（小学校）"
"254","acc80196-ade3-4d9b-a1b7-3c66cb9fa95a","能見台小学校","236-0057","kanagawa","横浜市金沢区","横浜市金沢区能見台三丁目32-1",NA,"35.3575","139.622074",NA,"c60134b5-a365-4046-8c77-03944d7a5f3d","横浜市プロジェクト","金沢区","金沢区（小学校）"
"255","b66103fc-4d42-434d-98e3-768cd0a71608","西金沢学園　小学部","236-0046","kanagawa","横浜市金沢区","横浜市金沢区釜利谷西四丁目19-1",NA,"35.344217","139.593861",NA,"e09a7743-e7ef-46f1-8ae8-96a6ac5d7d91","横浜市プロジェクト","金沢区","金沢区（小学校）"
"57","e8733ac2-f3fb-4f99-8879-bfe137e2241f","金沢高等学校","236-0027","kanagawa","横浜市金沢区","瀬戸22-1",NA,"35.335105","139.617847",NA,"24fe1291-439a-4458-b462-55b2dca9399e","横浜市プロジェクト","金沢区","金沢区（高等学校）"
"211","31ecac50-1b81-478f-8dc5-1441312fdc7f","山内中学校","225-0002","kanagawa","横浜市青葉区","美しが丘五丁目4",NA,"35.575874","139.552187",NA,"a511211c-efe1-4efb-8375-b0d565eb6c42","横浜市プロジェクト","青葉区","青葉区（中学校）"
"212","3f7de80b-61c5-494b-a212-8009f71665b7","すすき野中学校","225-0021","kanagawa","横浜市青葉区","すすき野三丁目4-3",NA,"35.578224","139.530989",NA,"34f216ad-fb00-4a7a-8cf0-0d5726f88310","横浜市プロジェクト","青葉区","青葉区（中学校）"
"213","400d90a3-cde4-41d7-b087-103f1ce6c776","市ケ尾中学校","225-0024","kanagawa","横浜市青葉区","市ケ尾町531-1",NA,"35.545743","139.546895",NA,"fc0a056d-dd5d-4105-8220-e965fe272a14","横浜市プロジェクト","青葉区","青葉区（中学校）"
"214","5394a04f-25e0-4f4a-977c-958df4068d8c","あかね台中学校","227-0066","kanagawa","横浜市青葉区","あかね台二丁目8-2",NA,"35.541558","139.485101",NA,"1d5fa169-2a6e-4cb2-b41b-93af2db8caa9","横浜市プロジェクト","青葉区","青葉区（中学校）"
"215","5562c4e8-3842-4755-a16e-199727e04f9e","あざみ野中学校","225-0011","kanagawa","横浜市青葉区","あざみ野一丁目29-1",NA,"35.571768","139.546895",NA,"7172c0ec-c4d3-4af5-a713-626a0b33278d","横浜市プロジェクト","青葉区","青葉区（中学校）"
"216","6adada90-8407-48d2-b1f3-06823c0d1eff","鴨志田中学校","227-0033","kanagawa","横浜市青葉区","鴨志田町536",NA,"35.565775","139.504647",NA,"9aa20267-3504-4f63-8b83-89598dd72ae8","横浜市プロジェクト","青葉区","青葉区（中学校）"
"217","70f99420-2f0e-4273-b2ed-4094b1746a2e","谷本中学校","227-0052","kanagawa","横浜市青葉区","梅が丘5",NA,"35.537161","139.522646",NA,"b8cc4143-a2f7-4b26-862d-edbce6656774","横浜市プロジェクト","青葉区","青葉区（中学校）"
"218","87475397-5572-4574-a432-e5fe1cd22e70","緑が丘中学校","227-0051","kanagawa","横浜市青葉区","千草台50-1",NA,"35.53558","139.535189",NA,"35f18a1f-f649-4fe4-a239-237789c4dd13","横浜市プロジェクト","青葉区","青葉区（中学校）"
"219","a46f5f2b-700a-44df-9992-30758b2071bc","美しが丘中学校","225-0002","kanagawa","横浜市青葉区","美しが丘三丁目41-1",NA,"35.587966","139.551666",NA,"bebf13f6-c3ce-423f-87ab-a73a304bc5a2","横浜市プロジェクト","青葉区","青葉区（中学校）"
"220","c1f95403-2036-4123-80b3-ce7dc6644faf","青葉台中学校","227-0062","kanagawa","横浜市青葉区","青葉台二丁目25-2",NA,"35.54719","139.515805",NA,"da4402b5-1db1-4c61-a623-402f45af1b0a","横浜市プロジェクト","青葉区","青葉区（中学校）"
"221","c2feeb4e-86c5-4ae2-b803-d03521e98aa0","もえぎ野中学校","227-0044","kanagawa","横浜市青葉区","もえぎ野4-1",NA,"35.546209","139.524062",NA,"35d544e4-5380-4653-8668-36bbdf315be7","横浜市プロジェクト","青葉区","青葉区（中学校）"
"222","d20a88ae-0cd9-4cc4-b045-0edf7bb29789","みたけ台中学校","227-0047","kanagawa","横浜市青葉区","みたけ台30",NA,"35.557206","139.521805",NA,"5a81feae-af3c-458d-92aa-026fdfd8c091","横浜市プロジェクト","青葉区","青葉区（中学校）"
"223","f4a18357-60bf-4d6b-a1e0-79c83f7da068","奈良中学校","227-0035","kanagawa","横浜市青葉区","すみよし台36-3",NA,"35.557005","139.49472",NA,"8cfd0803-e2ef-4f0f-8158-9dc379017d8a","横浜市プロジェクト","青葉区","青葉区（中学校）"
"291","03f683a6-b69c-41be-957b-e47fa8298baf","新石川小学校","225-0003","kanagawa","横浜市青葉区","新石川三丁目12-1",NA,"35.576805","139.562179",NA,"3cd9f1ae-d0d5-46d6-8825-077707485008","横浜市プロジェクト","青葉区","青葉区（小学校）"
"292","0f1a8bd7-7662-4bd9-afb0-73c39db6d1ee","鉄小学校","225-0025","kanagawa","横浜市青葉区","鉄町427",NA,"35.562147","139.51922",NA,"71002698-cdfe-4c24-af40-4a80d9d9d9c1","横浜市プロジェクト","青葉区","青葉区（小学校）"
"293","107216e9-3902-4d83-9479-55fa996495b3","黒須田小学校","225-0022","kanagawa","横浜市青葉区","黒須田34番地1",NA,"35.568351","139.533011",NA,"9a8b4030-01ba-4412-8135-38e182ba71ac","横浜市プロジェクト","青葉区","青葉区（小学校）"
"294","1d73421e-38c9-47a6-9c1c-dc871392f1e7","鴨志田緑小学校","227-0033","kanagawa","横浜市青葉区","鴨志田町532",NA,"35.56323","139.504866",NA,"1caf9ded-2f1d-4b34-8ddd-c1c0453b4096","横浜市プロジェクト","青葉区","青葉区（小学校）"
"295","21c061e6-8f62-46f1-bb32-1f5f64fce65b","美しが丘西小学校","225-0001","kanagawa","横浜市青葉区","美しが丘西二丁目48-1",NA,"35.590167","139.534482",NA,"533468d0-cdd0-4078-bcee-21791c855978","横浜市プロジェクト","青葉区","青葉区（小学校）"
"296","28cf40f4-dc4c-4ddd-b52c-2f0042627286","青葉台小学校","227-0061","kanagawa","横浜市青葉区","桜台47",NA,"35.551186","139.509818",NA,"08ddc90d-63e9-4db4-9c02-8de2c3eb93c0","横浜市プロジェクト","青葉区","青葉区（小学校）"
"297","31d76c9d-b67d-4fa3-b4c1-6e5d079fb202","田奈小学校","227-0064","kanagawa","横浜市青葉区","田奈町51-13",NA,"35.539035","139.499728",NA,"e11366cd-56a2-458d-8fcf-b1e3c0bf3e16","横浜市プロジェクト","青葉区","青葉区（小学校）"
"298","3500f2c6-08e0-4b1a-be9f-b40e178473d9","榎が丘小学校","227-0063","kanagawa","横浜市青葉区","榎が丘29",NA,"35.542241","139.510283",NA,"5c0f93cb-731e-49d9-ad59-bf7b7d8fb4b7","横浜市プロジェクト","青葉区","青葉区（小学校）"
"299","4252a566-5213-4318-b599-441e427cc57c","谷本小学校","227-0043","kanagawa","横浜市青葉区","藤が丘一丁目55-10",NA,"35.543215","139.535119",NA,"0f14b41f-5f96-406e-8a96-1d23a5afa129","横浜市プロジェクト","青葉区","青葉区（小学校）"
"300","43b8977c-a142-4296-ac3d-01adad1d9e62","美しが丘東小学校","225-0002","kanagawa","横浜市青葉区","美しが丘二丁目25",NA,"35.58204","139.559924",NA,"7776405f-76cd-4f62-a703-c66759357bc3","横浜市プロジェクト","青葉区","青葉区（小学校）"
"301","43ba2844-3fce-40e5-869c-ffe7a670e40f","美しが丘小学校","225-0002","kanagawa","横浜市青葉区","美しが丘二丁目29",NA,"35.584435","139.556375",NA,"f63ebb84-62c9-43ed-bd75-26f8cffd46f2","横浜市プロジェクト","青葉区","青葉区（小学校）"
"302","5ba948da-667e-4f1b-b9e7-c6089019f6ef","嶮山小学校","225-0021","kanagawa","横浜市青葉区","すすき野一丁目6-4",NA,"35.575905","139.529352",NA,"5109fe06-228a-484e-99dd-95f02dafb148","横浜市プロジェクト","青葉区","青葉区（小学校）"
"303","5f0ff29c-8b82-42c6-8776-7a53f212d167","東市ケ尾小学校","225-0024","kanagawa","横浜市青葉区","市ケ尾町519",NA,"35.543554","139.546701",NA,"61a859e0-84b0-4930-a8ba-06274a9d96f0","横浜市プロジェクト","青葉区","青葉区（小学校）"
"304","65d4398d-c4a1-402a-aba1-2edcb7949efd","荏子田小学校","225-0005","kanagawa","横浜市青葉区","荏子田三丁目8-9",NA,"35.574968","139.53555",NA,"533fcbc9-105e-492a-9a5f-d99f8ccbf70b","横浜市プロジェクト","青葉区","青葉区（小学校）"
"305","737301af-bcde-4f6c-a1d8-442806003e6e","元石川小学校","225-0002","kanagawa","横浜市青葉区","美しが丘四丁目31-1",NA,"35.583224","139.548323",NA,"da1e67b5-dcde-43d4-a872-e94253987d49","横浜市プロジェクト","青葉区","青葉区（小学校）"
"306","80097485-b4b4-46ca-89c0-021795e69dca","鴨志田第一小学校","227-0033","kanagawa","横浜市青葉区","鴨志田町805-6",NA,"35.557092","139.509574",NA,"ce02d89d-695f-4084-a11a-d3e6972c50fa","横浜市プロジェクト","青葉区","青葉区（小学校）"
"307","999594d9-ff85-4f88-b750-a95bbd061d0c","さつきが丘小学校","227-0053","kanagawa","横浜市青葉区","さつきが丘8",NA,"35.532264","139.518551",NA,"efb3e6dc-3b4f-424c-864f-66e1e9c6ef75","横浜市プロジェクト","青葉区","青葉区（小学校）"
"308","9a42371a-ad99-4311-ae5a-246d8cf3db99","あざみ野第二小学校","225-0011","kanagawa","横浜市青葉区","あざみ野三丁目29-3",NA,"35.563971","139.541962",NA,"26299d5d-77aa-4356-8b7c-c76e2520955c","横浜市プロジェクト","青葉区","青葉区（小学校）"
"309","a6264235-80a0-4036-ab69-8aa5ad3a54e6","市ケ尾小学校","225-0024","kanagawa","横浜市青葉区","市ケ尾町1632-1",NA,"35.556176","139.539711",NA,"54bd0146-41e5-4f14-9293-463a27b6e013","横浜市プロジェクト","青葉区","青葉区（小学校）"
"310","a9ff9380-8389-4a09-8656-31373182e068","山内小学校","225-0003","kanagawa","横浜市青葉区","新石川一丁目20-1",NA,"35.569059","139.556791",NA,"b9f639c8-3ded-491c-977b-b2b9e6daa2dc","横浜市プロジェクト","青葉区","青葉区（小学校）"
"311","b5362571-8337-43ba-a549-1460c4fdba9a","奈良小学校","227-0036","kanagawa","横浜市青葉区","奈良町1541-2",NA,"35.562799","139.480595",NA,"3841007d-eaf6-4824-b46c-9b7a9f16efff","横浜市プロジェクト","青葉区","青葉区（小学校）"
"312","bf010f5c-f862-4982-b81d-375719b06018","恩田小学校","227-0034","kanagawa","横浜市青葉区","桂台二丁目36",NA,"35.552646","139.499524",NA,"301c61b3-c5ad-45f5-9079-04ae8c7beaf5","横浜市プロジェクト","青葉区","青葉区（小学校）"
"313","c35f4801-c58b-4775-bd1d-6285ccb15bff","藤が丘小学校","227-0043","kanagawa","横浜市青葉区","藤が丘二丁目30-3",NA,"35.539118","139.52621",NA,"74d6917a-e5e4-4bfb-a225-68cbef0d66c1","横浜市プロジェクト","青葉区","青葉区（小学校）"
"314","d27c5044-1ac4-42ba-95cd-b45051216e81","みたけ台小学校","227-0047","kanagawa","横浜市青葉区","みたけ台18",NA,"35.556572","139.517077",NA,"eb0aa4ff-9441-4787-8bd4-4f999e1a5043","横浜市プロジェクト","青葉区","青葉区（小学校）"
"315","d9a14bda-fc48-404d-bf1d-3df4ffe0beaf","奈良の丘小学校","227-0038","kanagawa","横浜市青葉区","奈良二丁目29-1",NA,"35.551845","139.487157",NA,"397358c8-3b5e-4511-b2e3-cfbeb6a26cdc","横浜市プロジェクト","青葉区","青葉区（小学校）"
"316","e07e47b3-9f8b-4124-b08c-59f5bc826ec6","もえぎ野小学校","227-0044","kanagawa","横浜市青葉区","もえぎ野16",NA,"35.546221","139.524181",NA,"d6f4e05f-b54a-4af0-9ccb-ef4782cb1649","横浜市プロジェクト","青葉区","青葉区（小学校）"
"317","e3486525-bd3e-47af-842b-7fdacc759255","桂小学校","227-0034","kanagawa","横浜市青葉区","桂台一丁目4",NA,"35.548367","139.505174",NA,"43fdb0b2-7e7b-4049-96e6-3f8992dfe221","横浜市プロジェクト","青葉区","青葉区（小学校）"
"318","e79c03bf-d3f2-4564-b113-4f45e164fe24","あざみ野第一小学校","225-0011","kanagawa","横浜市青葉区","あざみ野四丁目6-1",NA,"35.571777","139.542717",NA,"47d1f2bb-c5c4-4756-b918-001110bbf65c","横浜市プロジェクト","青葉区","青葉区（小学校）"
"319","ee445cbc-ce6a-45f6-8f09-59414ad17609","荏田西小学校","225-0014","kanagawa","横浜市青葉区","荏田西四丁目5-1",NA,"35.547307","139.549083",NA,"b37ea76f-ea00-4d9c-a9e9-05f538d93208","横浜市プロジェクト","青葉区","青葉区（小学校）"
"320","fe9649ea-d03d-4c8c-a27c-7f692eef940d","つつじが丘小学校","227-0055","kanagawa","横浜市青葉区","つつじが丘34",NA,"35.535968","139.520099",NA,"36a2394d-c771-4399-9a1c-cbbc28445353","横浜市プロジェクト","青葉区","青葉区（小学校）"
"491","142aa1dc-6ca7-441b-aed2-012063f394e8","末吉中学校","230-0012","kanagawa","横浜市鶴見区","下末吉六丁目13-1",NA,"35.523169","139.664461",NA,"515c250c-0b72-45f8-92f9-261547189902","横浜市プロジェクト","鶴見区","鶴見区（中学校）"
"492","16660adb-a02e-476b-a064-9daf42b2490f","生麦中学校","230-0078","kanagawa","横浜市鶴見区","岸谷二丁目1-1",NA,"35.493656","139.659279",NA,"00de4a49-3e41-4922-8aac-b13a9d4a9877","横浜市プロジェクト","鶴見区","鶴見区（中学校）"
"493","18ef404b-db36-4f7e-96f2-5e68dbd92a75","横浜サイエンスフロンティア高等学校附属中学校","230-0046","kanagawa","横浜市鶴見区","小野町6",NA,"35.498284","139.678775",NA,"be9c8ece-bf5f-42c8-af97-358e3b5dd4f0","横浜市プロジェクト","鶴見区","鶴見区（中学校）"
"494","27883ef5-afa5-4987-a7b2-465ef849d90a","矢向中学校","230-0001","kanagawa","横浜市鶴見区","矢向一丁目8-24",NA,"35.529269","139.674827",NA,"4bac19c0-5fe7-4314-8171-477db06696f3","横浜市プロジェクト","鶴見区","鶴見区（中学校）"
"495","2ccc75f8-bfdb-4623-933c-b96ebbfed021","鶴見中学校","230-0051","kanagawa","横浜市鶴見区","鶴見中央三丁目14-1",NA,"35.509927","139.684488",NA,"16821efc-ce3c-4e93-9e7e-9475345be931","横浜市プロジェクト","鶴見区","鶴見区（中学校）"
"496","6602b573-1f20-48fb-af09-44e9d0ab9c50","寺尾中学校","230-0074","kanagawa","横浜市鶴見区","北寺尾三丁目13-1",NA,"35.519533","139.658581",NA,"e66e4f5b-5bc2-4766-8261-790844eca40a","横浜市プロジェクト","鶴見区","鶴見区（中学校）"
"497","6e4f5c1a-416d-47aa-9d78-6f7b7d1b468f","市場中学校","230-0024","kanagawa","横浜市鶴見区","市場下町1-1",NA,"35.514882","139.684049",NA,"1fd52584-f211-4e45-917b-a6dc5a92f8a5","横浜市プロジェクト","鶴見区","鶴見区（中学校）"
"498","764c444c-5e64-4438-a861-e215728a98d9","寛政中学校","230-0034","kanagawa","横浜市鶴見区","寛政町23-1",NA,"35.501743","139.699592",NA,"858f59fd-ec77-4eab-b643-fbb3bbf5ca02","横浜市プロジェクト","鶴見区","鶴見区（中学校）"
"499","917c6b9f-e210-4e51-954a-ae8812b662f8","潮田中学校","230-0037","kanagawa","横浜市鶴見区","向井町4-83",NA,"35.50672","139.691656",NA,"f2441946-b130-4ba5-9d12-6d54aec1a8b2","横浜市プロジェクト","鶴見区","鶴見区（中学校）"
"500","adde9abb-5456-4179-924d-42b1d477d02e","上の宮中学校","230-0075","kanagawa","横浜市鶴見区","上の宮一丁目26-33",NA,"35.512464","139.638574",NA,"3d71434b-6632-4f6b-bda2-a000d7af902a","横浜市プロジェクト","鶴見区","鶴見区（中学校）"
"146","01749274-2ac8-4481-8600-dc0fb1243e83","汐入小学校","230-0043","kanagawa","横浜市鶴見区","汐入町2-36",NA,"35.498836","139.687681",NA,"6f69e3aa-f448-42d6-9fe6-c5b0dffafd2b","横浜市プロジェクト","鶴見区","鶴見区（小学校）"
"147","020d02bd-47c9-4706-8126-29400bf75513","新鶴見小学校","230-0002","kanagawa","横浜市鶴見区","江ケ崎町2-1",NA,"35.53277","139.67702",NA,"7a1eb273-9b14-4acb-9996-f153e784f29d","横浜市プロジェクト","鶴見区","鶴見区（小学校）"
"148","09094b20-d7c3-4b69-8736-42f84288b02d","下野谷小学校","230-0047","kanagawa","横浜市鶴見区","下野谷町2-49",NA,"35.500363","139.680868",NA,"39d752ae-4341-4290-ad00-fd7cf77be1c6","横浜市プロジェクト","鶴見区","鶴見区（小学校）"
"149","0e8a2c71-61e3-4d6a-a8a4-ce57f1883b14","市場小学校","230-0004","kanagawa","横浜市鶴見区","元宮一丁目13-1",NA,"35.523135","139.682389",NA,"b3642815-c92c-4498-bb7c-d70a1668bcad","横浜市プロジェクト","鶴見区","鶴見区（小学校）"
"150","16d4bd48-462c-49ca-b67f-922cbcb57cfb","鶴見小学校","230-0051","kanagawa","横浜市鶴見区","鶴見中央三丁目19-1",NA,"35.509169","139.684143",NA,"d1770e33-b93e-412e-8489-07f2de9067d4","横浜市プロジェクト","鶴見区","鶴見区（小学校）"
"151","1b214892-bcb9-46b6-849a-ec9761f303b3","旭小学校","230-0074","kanagawa","横浜市鶴見区","北寺尾四丁目25-1",NA,"35.515619","139.655273",NA,"362f158c-b7ff-4869-975b-3891b0a1f574","横浜市プロジェクト","鶴見区","鶴見区（小学校）"
"152","299b61bd-b715-46fe-bd37-37ee553198c6","末吉小学校","230-0011","kanagawa","横浜市鶴見区","上末吉一丁目9-1",NA,"35.525359","139.669425",NA,"475f919b-2685-4374-b0bd-8c9f96f2a04e","横浜市プロジェクト","鶴見区","鶴見区（小学校）"
"153","403aadc1-daeb-4a9d-83ca-39a363fdb232","寺尾小学校","230-0077","kanagawa","横浜市鶴見区","東寺尾五丁目19-1",NA,"35.504434","139.657684",NA,"b7fb3f97-a6c4-4650-a85c-9f2719a5aa33","横浜市プロジェクト","鶴見区","鶴見区（小学校）"
"154","453aaea9-76c4-4ec6-aa9b-c82ce97ae1e5","岸谷小学校","230-0078","kanagawa","横浜市鶴見区","岸谷一丁目6-1",NA,"35.4939","139.662637",NA,"da0ac45f-bc39-4792-ad05-22ea6a351763","横浜市プロジェクト","鶴見区","鶴見区（小学校）"
"155","567960f7-d228-4cc8-8f83-517423ee0223","上末吉小学校","230-0011","kanagawa","横浜市鶴見区","上末吉五丁目24-1",NA,"35.533588","139.661601",NA,"82fd600c-d8a5-422c-acd2-345be4d0268c","横浜市プロジェクト","鶴見区","鶴見区（小学校）"
"156","6652bb92-a119-4eb5-8717-81de9f0dccb6","潮田小学校","230-0037","kanagawa","横浜市鶴見区","向井町三丁目82-1",NA,"35.506886","139.689742",NA,"f110be84-8402-48f0-b84f-609d081569c0","横浜市プロジェクト","鶴見区","鶴見区（小学校）"
"157","6a05de99-e086-4bac-af45-44d49253a8c9","獅子ケ谷小学校","230-0073","kanagawa","横浜市鶴見区","獅子ケ谷一丁目19-1",NA,"35.517391","139.651148",NA,"0f980771-8dd2-46e4-babb-bfb946b4f5aa","横浜市プロジェクト","鶴見区","鶴見区（小学校）"
"158","771e6732-fe89-4daf-900e-92f891504aa0","矢向小学校","230-0001","kanagawa","横浜市鶴見区","矢向三丁目8-1",NA,"35.533044","139.679817",NA,"2e9a782d-07a1-43e2-a1c4-d85de5385ab2","横浜市プロジェクト","鶴見区","鶴見区（小学校）"
"159","95cf1ddb-a059-4943-b081-c80dd5098695","生麦小学校","230-0052","kanagawa","横浜市鶴見区","生麦四丁目15-1",NA,"35.495958","139.67092",NA,"c56ee24e-97c5-46d1-afcc-36939fd9666f","横浜市プロジェクト","鶴見区","鶴見区（小学校）"
"160","a18e0670-f62d-42af-b414-cda26f5413a6","豊岡小学校","230-0062","kanagawa","横浜市鶴見区","豊岡町27-1",NA,"35.512514","139.675306",NA,"ec723a80-3833-4c5d-b10b-d4ab5ecc188b","横浜市プロジェクト","鶴見区","鶴見区（小学校）"
"161","a79ba50a-28b0-48f9-82f6-0e33d1c56c9f","下末吉小学校","230-0012","kanagawa","横浜市鶴見区","下末吉二丁目25-6",NA,"35.52271","139.674588",NA,"7e80a6a2-ab8c-4d54-b97a-f24cb5da532f","横浜市プロジェクト","鶴見区","鶴見区（小学校）"
"162","a93b695b-5069-40d3-8cec-a5162ccd3dcf","平安小学校","230-0031","kanagawa","横浜市鶴見区","平安町二丁目9-1",NA,"35.512219","139.692294",NA,"e96339ae-b0d3-41c3-92db-a2dab42dd1b7","横浜市プロジェクト","鶴見区","鶴見区（小学校）"
"163","ae15edf0-7076-4502-b612-a75fc36d0f88","入船小学校","230-0036","kanagawa","横浜市鶴見区","浜町一丁目1-1",NA,"35.500934","139.692454",NA,"608f42b6-cdb4-4c92-8295-005441054465","横浜市プロジェクト","鶴見区","鶴見区（小学校）"
"164","ba62e07d-7590-4c4f-bb25-56b7f39364f2","上寺尾小学校","230-0076","kanagawa","横浜市鶴見区","馬場三丁目21-21",NA,"35.506981","139.654526",NA,"ac670ae6-9c80-44f4-98b3-1297f861823b","横浜市プロジェクト","鶴見区","鶴見区（小学校）"
"165","d1144cce-4780-42ce-8a85-351926d80b3c","馬場小学校","230-0076","kanagawa","横浜市鶴見区","馬場七丁目20-1",NA,"35.509933","139.644498",NA,"5332784f-0fae-41e0-bc40-1af3e6844944","横浜市プロジェクト","鶴見区","鶴見区（小学校）"
"166","d4dc10ae-2af6-489b-adde-fb25875b5889","駒岡小学校","230-0071","kanagawa","横浜市鶴見区","駒岡三丁目14-1",NA,"35.529138","139.655303",NA,"b233ad2f-307f-445e-99f6-84239e9edcab","横浜市プロジェクト","鶴見区","鶴見区（小学校）"
"167","e709570a-2683-4ade-b527-2b9d965c709a","東台小学校","230-0018","kanagawa","横浜市鶴見区","東寺尾東台12-1",NA,"35.503445","139.6647",NA,"70e1b262-e1cc-4523-9aff-2d51ff0e175b","横浜市プロジェクト","鶴見区","鶴見区（小学校）"
"168","e81a3be9-f14a-48cd-a7dc-c8198df1a3cd","市場小学校けやき分校小学校","230-0004","kanagawa","横浜市鶴見区","元宮二丁目5-29",NA,"35.520134","139.678456",NA,"0dc42995-f47d-423e-8c2a-a9503e123a62","横浜市プロジェクト","鶴見区","鶴見区（小学校）"
"207","11eabe14-cc4d-4bae-8b2c-415b019db57a","東高等学校","230-0076","kanagawa","横浜市鶴見区馬場","三丁目5-1",NA,"35.505322","139.651203",NA,"288e75b7-5209-44c1-b97f-a2d65f575016","横浜市プロジェクト","鶴見区","鶴見区（高等学校）"
"208","200eb10f-4577-49cd-8f32-68c37cdfe457","横浜サイエンスフロンティア高等学校","230-0046","kanagawa","横浜市鶴見区小野町","6",NA,"35.498284","139.678775",NA,"e8604982-3b6d-4a16-bd93-e6d7e75a5ae6","横浜市プロジェクト","鶴見区","鶴見区（高等学校）"
